<?xml version="1.0" encoding="UTF-8"?>
<kml xmlns="http://www.opengis.net/kml/2.2" xmlns:gx="http://www.google.com/kml/ext/2.2">
<Document><name>Domaine de vol — Base de lancement de Ger — 212.2°</name><open>1</open>
<Style id="s_cercle"><LineStyle><color>e6ffa022</color><width>2</width></LineStyle><LabelStyle><scale>0</scale></LabelStyle></Style>
<Style id="s_secteur"><LineStyle><color>f20088ff</color><width>2</width></LineStyle><LabelStyle><scale>0</scale></LabelStyle></Style>
<Style id="s_limites"><LineStyle><color>f2ffffff</color><width>3</width></LineStyle><LabelStyle><scale>0</scale></LabelStyle></Style>
<Style id="s_zone0"><LineStyle><color>ff00d2ff</color><width>2</width></LineStyle><PolyStyle><color>1f00d2ff</color><fill>1</fill><outline>1</outline></PolyStyle><LabelStyle><scale>0</scale></LabelStyle></Style>
<Style id="s_zone0_v"><LineStyle><color>ff00d2ff</color><width>2</width></LineStyle><PolyStyle><color>2600d2ff</color><fill>1</fill><outline>1</outline></PolyStyle><LabelStyle><scale>0</scale></LabelStyle></Style>
<Style id="s_zone0_l"><LineStyle><color>e600d2ff</color><width>2</width></LineStyle><LabelStyle><scale>0</scale></LabelStyle></Style>
<Style id="s_zone1"><LineStyle><color>ff0000ff</color><width>2</width></LineStyle><PolyStyle><color>330000ff</color><fill>1</fill><outline>1</outline></PolyStyle><LabelStyle><scale>0</scale></LabelStyle></Style>
<Style id="s_zone1_v"><LineStyle><color>ff0000ff</color><width>2</width></LineStyle><PolyStyle><color>260000ff</color><fill>1</fill><outline>1</outline></PolyStyle><LabelStyle><scale>0</scale></LabelStyle></Style>
<Style id="s_zone1_l"><LineStyle><color>e60000ff</color><width>2</width></LineStyle><LabelStyle><scale>0</scale></LabelStyle></Style>
<Style id="s_dom0"><LineStyle><color>ffff0000</color><width>2</width></LineStyle><PolyStyle><color>47ff0000</color><fill>1</fill><outline>1</outline></PolyStyle><LabelStyle><scale>0</scale></LabelStyle></Style>
<Style id="s_dom0_v"><LineStyle><color>ffff0000</color><width>2</width></LineStyle><PolyStyle><color>26ff0000</color><fill>1</fill><outline>1</outline></PolyStyle><LabelStyle><scale>0</scale></LabelStyle></Style>
<Style id="s_dom0_l"><LineStyle><color>f2ff0000</color><width>2</width></LineStyle><LabelStyle><scale>0</scale></LabelStyle></Style>
<Style id="s_v0_0"><LineStyle><color>ffff0000</color><width>3</width></LineStyle><PolyStyle><color>59ff0000</color><fill>1</fill><outline>0</outline></PolyStyle><LabelStyle><scale>0</scale></LabelStyle></Style>
<Style id="s_v0_0_m"><LineStyle><color>59ff0000</color><width>1.5</width></LineStyle><LabelStyle><scale>0</scale></LabelStyle></Style>
<Style id="s_v0_1"><LineStyle><color>ffff0000</color><width>3</width></LineStyle><PolyStyle><color>59ff0000</color><fill>1</fill><outline>0</outline></PolyStyle><LabelStyle><scale>0</scale></LabelStyle></Style>
<Style id="s_v0_1_m"><LineStyle><color>59ff0000</color><width>1.5</width></LineStyle><LabelStyle><scale>0</scale></LabelStyle></Style>
<Style id="s_v0_2"><LineStyle><color>ffff0000</color><width>3</width></LineStyle><PolyStyle><color>59ff0000</color><fill>1</fill><outline>0</outline></PolyStyle><LabelStyle><scale>0</scale></LabelStyle></Style>
<Style id="s_v0_2_m"><LineStyle><color>59ff0000</color><width>1.5</width></LineStyle><LabelStyle><scale>0</scale></LabelStyle></Style>
<Style id="s_v0_3"><LineStyle><color>ffff0000</color><width>3</width></LineStyle><PolyStyle><color>59ff0000</color><fill>1</fill><outline>0</outline></PolyStyle><LabelStyle><scale>0</scale></LabelStyle></Style>
<Style id="s_v0_3_m"><LineStyle><color>59ff0000</color><width>1.5</width></LineStyle><LabelStyle><scale>0</scale></LabelStyle></Style>
<Folder><name>Zones</name><open>1</open>
<Placemark><name>Périmètre de la base</name><description>Zone « perimetre »&lt;br/&gt;Décor&lt;br/&gt;Surface : 823.2 ha&lt;br/&gt;Plafond : 3000 m</description><styleUrl>#s_zone0</styleUrl><Polygon><extrude>0</extrude><altitudeMode>clampToGround</altitudeMode><outerBoundaryIs><LinearRing><coordinates>-0.07362220,43.22199720,428.96 -0.04529440,43.22611110,428.96 -0.04557500,43.21689440,428.96 -0.04145560,43.20756390,428.96 -0.06411940,43.18800280,428.96 -0.07570280,43.19047780,428.96 -0.07362220,43.22199720,428.96</coordinates></LinearRing></outerBoundaryIs></Polygon></Placemark>
<Placemark><name>Périmètre de la base — arêtes</name><description>Zone « perimetre »&lt;br/&gt;Décor&lt;br/&gt;Surface : 823.2 ha&lt;br/&gt;Plafond : 3000 m</description><styleUrl>#s_zone0_l</styleUrl><MultiGeometry><LineString><altitudeMode>absolute</altitudeMode><coordinates>-0.07362220,43.22199720,428.96 -0.07362220,43.22199720,3428.96</coordinates></LineString><LineString><altitudeMode>absolute</altitudeMode><coordinates>-0.04529440,43.22611110,428.96 -0.04529440,43.22611110,3428.96</coordinates></LineString><LineString><altitudeMode>absolute</altitudeMode><coordinates>-0.04557500,43.21689440,428.96 -0.04557500,43.21689440,3428.96</coordinates></LineString><LineString><altitudeMode>absolute</altitudeMode><coordinates>-0.04145560,43.20756390,428.96 -0.04145560,43.20756390,3428.96</coordinates></LineString><LineString><altitudeMode>absolute</altitudeMode><coordinates>-0.06411940,43.18800280,428.96 -0.06411940,43.18800280,3428.96</coordinates></LineString><LineString><altitudeMode>absolute</altitudeMode><coordinates>-0.07570280,43.19047780,428.96 -0.07570280,43.19047780,3428.96</coordinates></LineString></MultiGeometry></Placemark>
<Placemark><name>Périmètre de la base — plafond</name><description>Plafond à 3000 m au-dessus du sol</description><styleUrl>#s_zone0_l</styleUrl><LineString><altitudeMode>absolute</altitudeMode><coordinates>-0.07362220,43.22199720,3428.96 -0.04529440,43.22611110,3428.96 -0.04557500,43.21689440,3428.96 -0.04145560,43.20756390,3428.96 -0.06411940,43.18800280,3428.96 -0.07570280,43.19047780,3428.96 -0.07362220,43.22199720,3428.96</coordinates></LineString></Placemark>
<Placemark><name>Zone rouge</name><description>Zone « zone_rouge »&lt;br/&gt;Décor&lt;br/&gt;Surface : 69.0 ha</description><styleUrl>#s_zone1</styleUrl><Polygon><extrude>0</extrude><altitudeMode>clampToGround</altitudeMode><outerBoundaryIs><LinearRing><coordinates>-0.06125000,43.20947220,428.96 -0.05688610,43.21667500,428.96 -0.05113610,43.21520000,428.96 -0.05724170,43.20332220,428.96 -0.06070830,43.20362500,428.96 -0.06125000,43.20947220,428.96</coordinates></LinearRing></outerBoundaryIs></Polygon></Placemark>
</Folder>
<Folder><name>Pas de tir</name><open>1</open>
<Placemark><name>Rampe FusEx</name><description>Identifiant : rampe_fusex&lt;br/&gt;Altitude sol : 429 m&lt;br/&gt;&lt;b&gt;Origine d'un domaine&lt;/b&gt;</description><Point><altitudeMode>clampToGround</altitudeMode><coordinates>-0.04733330,43.21843610,428.96</coordinates></Point></Placemark>
<Placemark><name>Rampe Minif</name><description>Identifiant : rampe_minif&lt;br/&gt;Altitude sol : 433 m</description><Point><altitudeMode>clampToGround</altitudeMode><coordinates>-0.05221670,43.22072500,428.96</coordinates></Point></Placemark>
</Folder>
<Folder><name>SP02 J285 — 212.2° ± 13.2°</name><open>1</open>
<Placemark><name>Domaine (R = 3169 m)</name><description>Pas de tir : Rampe FusEx&lt;br/&gt;Zone : Périmètre de la base&lt;br/&gt;Groupe : sp02_v3_J285&lt;br/&gt;Azimut : 212.2°&lt;br/&gt;Demi-angle : ± 13.2°&lt;br/&gt;Portée : 3169 m&lt;br/&gt;Surface : 301.6 ha</description><styleUrl>#s_dom0</styleUrl><Polygon><extrude>0</extrude><altitudeMode>clampToGround</altitudeMode><outerBoundaryIs><LinearRing><coordinates>-0.04733330,43.21843610,428.96 -0.07517807,43.19842704,428.96 -0.07570280,43.19047780,428.96 -0.06411940,43.18800280,428.96 -0.06007500,43.19149352,428.96 -0.04733330,43.21843610,428.96</coordinates></LinearRing></outerBoundaryIs></Polygon></Placemark>
<Placemark><name>Limite A</name><description>Azimut 225.4° — 3169 m</description><styleUrl>#s_limites</styleUrl><MultiGeometry><LineString><tessellate>1</tessellate><altitudeMode>clampToGround</altitudeMode><coordinates>-0.04733330,43.21843610,428.96 -0.04755298,43.21827824,428.96</coordinates></LineString><LineString><tessellate>1</tessellate><altitudeMode>clampToGround</altitudeMode><coordinates>-0.04768479,43.21818352,428.96 -0.04790446,43.21802567,428.96</coordinates></LineString><LineString><tessellate>1</tessellate><altitudeMode>clampToGround</altitudeMode><coordinates>-0.04803627,43.21793095,428.96 -0.04825595,43.21777309,428.96</coordinates></LineString><LineString><tessellate>1</tessellate><altitudeMode>clampToGround</altitudeMode><coordinates>-0.04838776,43.21767837,428.96 -0.04860744,43.21752051,428.96</coordinates></LineString><LineString><tessellate>1</tessellate><altitudeMode>clampToGround</altitudeMode><coordinates>-0.04873924,43.21742580,428.96 -0.04895892,43.21726794,428.96</coordinates></LineString><LineString><tessellate>1</tessellate><altitudeMode>clampToGround</altitudeMode><coordinates>-0.04909073,43.21717322,428.96 -0.04931041,43.21701536,428.96</coordinates></LineString><LineString><tessellate>1</tessellate><altitudeMode>clampToGround</altitudeMode><coordinates>-0.04944221,43.21692065,428.96 -0.04966189,43.21676279,428.96</coordinates></LineString><LineString><tessellate>1</tessellate><altitudeMode>clampToGround</altitudeMode><coordinates>-0.04979370,43.21666807,428.96 -0.05001338,43.21651021,428.96</coordinates></LineString><LineString><tessellate>1</tessellate><altitudeMode>clampToGround</altitudeMode><coordinates>-0.05014519,43.21641550,428.96 -0.05036486,43.21625764,428.96</coordinates></LineString><LineString><tessellate>1</tessellate><altitudeMode>clampToGround</altitudeMode><coordinates>-0.05049667,43.21616292,428.96 -0.05071635,43.21600506,428.96</coordinates></LineString><LineString><tessellate>1</tessellate><altitudeMode>clampToGround</altitudeMode><coordinates>-0.05084816,43.21591035,428.96 -0.05106784,43.21575249,428.96</coordinates></LineString><LineString><tessellate>1</tessellate><altitudeMode>clampToGround</altitudeMode><coordinates>-0.05119964,43.21565777,428.96 -0.05141932,43.21549991,428.96</coordinates></LineString><LineString><tessellate>1</tessellate><altitudeMode>clampToGround</altitudeMode><coordinates>-0.05155113,43.21540520,428.96 -0.05177081,43.21524734,428.96</coordinates></LineString><LineString><tessellate>1</tessellate><altitudeMode>clampToGround</altitudeMode><coordinates>-0.05190261,43.21515262,428.96 -0.05212229,43.21499476,428.96</coordinates></LineString><LineString><tessellate>1</tessellate><altitudeMode>clampToGround</altitudeMode><coordinates>-0.05225410,43.21490005,428.96 -0.05247378,43.21474219,428.96</coordinates></LineString><LineString><tessellate>1</tessellate><altitudeMode>clampToGround</altitudeMode><coordinates>-0.05260559,43.21464747,428.96 -0.05282526,43.21448961,428.96</coordinates></LineString><LineString><tessellate>1</tessellate><altitudeMode>clampToGround</altitudeMode><coordinates>-0.05295707,43.21439490,428.96 -0.05317675,43.21423704,428.96</coordinates></LineString><LineString><tessellate>1</tessellate><altitudeMode>clampToGround</altitudeMode><coordinates>-0.05330856,43.21414232,428.96 -0.05352824,43.21398446,428.96</coordinates></LineString><LineString><tessellate>1</tessellate><altitudeMode>clampToGround</altitudeMode><coordinates>-0.05366004,43.21388975,428.96 -0.05387972,43.21373189,428.96</coordinates></LineString><LineString><tessellate>1</tessellate><altitudeMode>clampToGround</altitudeMode><coordinates>-0.05401153,43.21363717,428.96 -0.05423121,43.21347931,428.96</coordinates></LineString><LineString><tessellate>1</tessellate><altitudeMode>clampToGround</altitudeMode><coordinates>-0.05436301,43.21338459,428.96 -0.05458269,43.21322673,428.96</coordinates></LineString><LineString><tessellate>1</tessellate><altitudeMode>clampToGround</altitudeMode><coordinates>-0.05471450,43.21313202,428.96 -0.05493418,43.21297416,428.96</coordinates></LineString><LineString><tessellate>1</tessellate><altitudeMode>clampToGround</altitudeMode><coordinates>-0.05506599,43.21287944,428.96 -0.05528566,43.21272158,428.96</coordinates></LineString><LineString><tessellate>1</tessellate><altitudeMode>clampToGround</altitudeMode><coordinates>-0.05541747,43.21262687,428.96 -0.05563715,43.21246901,428.96</coordinates></LineString><LineString><tessellate>1</tessellate><altitudeMode>clampToGround</altitudeMode><coordinates>-0.05576896,43.21237429,428.96 -0.05598864,43.21221643,428.96</coordinates></LineString><LineString><tessellate>1</tessellate><altitudeMode>clampToGround</altitudeMode><coordinates>-0.05612044,43.21212172,428.96 -0.05634012,43.21196386,428.96</coordinates></LineString><LineString><tessellate>1</tessellate><altitudeMode>clampToGround</altitudeMode><coordinates>-0.05647193,43.21186914,428.96 -0.05669161,43.21171128,428.96</coordinates></LineString><LineString><tessellate>1</tessellate><altitudeMode>clampToGround</altitudeMode><coordinates>-0.05682341,43.21161657,428.96 -0.05704309,43.21145871,428.96</coordinates></LineString><LineString><tessellate>1</tessellate><altitudeMode>clampToGround</altitudeMode><coordinates>-0.05717490,43.21136399,428.96 -0.05739458,43.21120613,428.96</coordinates></LineString><LineString><tessellate>1</tessellate><altitudeMode>clampToGround</altitudeMode><coordinates>-0.05752639,43.21111142,428.96 -0.05774606,43.21095356,428.96</coordinates></LineString><LineString><tessellate>1</tessellate><altitudeMode>clampToGround</altitudeMode><coordinates>-0.05787787,43.21085884,428.96 -0.05809755,43.21070098,428.96</coordinates></LineString><LineString><tessellate>1</tessellate><altitudeMode>clampToGround</altitudeMode><coordinates>-0.05822936,43.21060627,428.96 -0.05844904,43.21044841,428.96</coordinates></LineString><LineString><tessellate>1</tessellate><altitudeMode>clampToGround</altitudeMode><coordinates>-0.05858084,43.21035369,428.96 -0.05880052,43.21019583,428.96</coordinates></LineString><LineString><tessellate>1</tessellate><altitudeMode>clampToGround</altitudeMode><coordinates>-0.05893233,43.21010112,428.96 -0.05915201,43.20994326,428.96</coordinates></LineString><LineString><tessellate>1</tessellate><altitudeMode>clampToGround</altitudeMode><coordinates>-0.05928381,43.20984854,428.96 -0.05950349,43.20969068,428.96</coordinates></LineString><LineString><tessellate>1</tessellate><altitudeMode>clampToGround</altitudeMode><coordinates>-0.05963530,43.20959597,428.96 -0.05985498,43.20943811,428.96</coordinates></LineString><LineString><tessellate>1</tessellate><altitudeMode>clampToGround</altitudeMode><coordinates>-0.05998679,43.20934339,428.96 -0.06020646,43.20918553,428.96</coordinates></LineString><LineString><tessellate>1</tessellate><altitudeMode>clampToGround</altitudeMode><coordinates>-0.06033827,43.20909081,428.96 -0.06055795,43.20893296,428.96</coordinates></LineString><LineString><tessellate>1</tessellate><altitudeMode>clampToGround</altitudeMode><coordinates>-0.06068976,43.20883824,428.96 -0.06090944,43.20868038,428.96</coordinates></LineString><LineString><tessellate>1</tessellate><altitudeMode>clampToGround</altitudeMode><coordinates>-0.06104124,43.20858566,428.96 -0.06126092,43.20842780,428.96</coordinates></LineString><LineString><tessellate>1</tessellate><altitudeMode>clampToGround</altitudeMode><coordinates>-0.06139273,43.20833309,428.96 -0.06161241,43.20817523,428.96</coordinates></LineString><LineString><tessellate>1</tessellate><altitudeMode>clampToGround</altitudeMode><coordinates>-0.06174421,43.20808051,428.96 -0.06196389,43.20792265,428.96</coordinates></LineString><LineString><tessellate>1</tessellate><altitudeMode>clampToGround</altitudeMode><coordinates>-0.06209570,43.20782794,428.96 -0.06231538,43.20767008,428.96</coordinates></LineString><LineString><tessellate>1</tessellate><altitudeMode>clampToGround</altitudeMode><coordinates>-0.06244719,43.20757536,428.96 -0.06266686,43.20741750,428.96</coordinates></LineString><LineString><tessellate>1</tessellate><altitudeMode>clampToGround</altitudeMode><coordinates>-0.06279867,43.20732279,428.96 -0.06301835,43.20716493,428.96</coordinates></LineString><LineString><tessellate>1</tessellate><altitudeMode>clampToGround</altitudeMode><coordinates>-0.06315016,43.20707021,428.96 -0.06336984,43.20691235,428.96</coordinates></LineString><LineString><tessellate>1</tessellate><altitudeMode>clampToGround</altitudeMode><coordinates>-0.06350164,43.20681764,428.96 -0.06372132,43.20665978,428.96</coordinates></LineString><LineString><tessellate>1</tessellate><altitudeMode>clampToGround</altitudeMode><coordinates>-0.06385313,43.20656506,428.96 -0.06407281,43.20640720,428.96</coordinates></LineString><LineString><tessellate>1</tessellate><altitudeMode>clampToGround</altitudeMode><coordinates>-0.06420461,43.20631249,428.96 -0.06442429,43.20615463,428.96</coordinates></LineString><LineString><tessellate>1</tessellate><altitudeMode>clampToGround</altitudeMode><coordinates>-0.06455610,43.20605991,428.96 -0.06477578,43.20590205,428.96</coordinates></LineString><LineString><tessellate>1</tessellate><altitudeMode>clampToGround</altitudeMode><coordinates>-0.06490759,43.20580734,428.96 -0.06512726,43.20564948,428.96</coordinates></LineString><LineString><tessellate>1</tessellate><altitudeMode>clampToGround</altitudeMode><coordinates>-0.06525907,43.20555476,428.96 -0.06547875,43.20539690,428.96</coordinates></LineString><LineString><tessellate>1</tessellate><altitudeMode>clampToGround</altitudeMode><coordinates>-0.06561056,43.20530219,428.96 -0.06583024,43.20514433,428.96</coordinates></LineString><LineString><tessellate>1</tessellate><altitudeMode>clampToGround</altitudeMode><coordinates>-0.06596204,43.20504961,428.96 -0.06618172,43.20489175,428.96</coordinates></LineString><LineString><tessellate>1</tessellate><altitudeMode>clampToGround</altitudeMode><coordinates>-0.06631353,43.20479704,428.96 -0.06653321,43.20463918,428.96</coordinates></LineString><LineString><tessellate>1</tessellate><altitudeMode>clampToGround</altitudeMode><coordinates>-0.06666501,43.20454446,428.96 -0.06688469,43.20438660,428.96</coordinates></LineString><LineString><tessellate>1</tessellate><altitudeMode>clampToGround</altitudeMode><coordinates>-0.06701650,43.20429188,428.96 -0.06723618,43.20413403,428.96</coordinates></LineString><LineString><tessellate>1</tessellate><altitudeMode>clampToGround</altitudeMode><coordinates>-0.06736799,43.20403931,428.96 -0.06758766,43.20388145,428.96</coordinates></LineString><LineString><tessellate>1</tessellate><altitudeMode>clampToGround</altitudeMode><coordinates>-0.06771947,43.20378673,428.96 -0.06793915,43.20362887,428.96</coordinates></LineString><LineString><tessellate>1</tessellate><altitudeMode>clampToGround</altitudeMode><coordinates>-0.06807096,43.20353416,428.96 -0.06829064,43.20337630,428.96</coordinates></LineString><LineString><tessellate>1</tessellate><altitudeMode>clampToGround</altitudeMode><coordinates>-0.06842244,43.20328158,428.96 -0.06864212,43.20312372,428.96</coordinates></LineString><LineString><tessellate>1</tessellate><altitudeMode>clampToGround</altitudeMode><coordinates>-0.06877393,43.20302901,428.96 -0.06899361,43.20287115,428.96</coordinates></LineString><LineString><tessellate>1</tessellate><altitudeMode>clampToGround</altitudeMode><coordinates>-0.06912541,43.20277643,428.96 -0.06934509,43.20261857,428.96</coordinates></LineString><LineString><tessellate>1</tessellate><altitudeMode>clampToGround</altitudeMode><coordinates>-0.06947690,43.20252386,428.96 -0.06969658,43.20236600,428.96</coordinates></LineString><LineString><tessellate>1</tessellate><altitudeMode>clampToGround</altitudeMode><coordinates>-0.06982839,43.20227128,428.96 -0.07004806,43.20211342,428.96</coordinates></LineString><LineString><tessellate>1</tessellate><altitudeMode>clampToGround</altitudeMode><coordinates>-0.07017987,43.20201871,428.96 -0.07039955,43.20186085,428.96</coordinates></LineString><LineString><tessellate>1</tessellate><altitudeMode>clampToGround</altitudeMode><coordinates>-0.07053136,43.20176613,428.96 -0.07075104,43.20160827,428.96</coordinates></LineString><LineString><tessellate>1</tessellate><altitudeMode>clampToGround</altitudeMode><coordinates>-0.07088284,43.20151356,428.96 -0.07110252,43.20135570,428.96</coordinates></LineString><LineString><tessellate>1</tessellate><altitudeMode>clampToGround</altitudeMode><coordinates>-0.07123433,43.20126098,428.96 -0.07145401,43.20110312,428.96</coordinates></LineString><LineString><tessellate>1</tessellate><altitudeMode>clampToGround</altitudeMode><coordinates>-0.07158581,43.20100841,428.96 -0.07180549,43.20085055,428.96</coordinates></LineString><LineString><tessellate>1</tessellate><altitudeMode>clampToGround</altitudeMode><coordinates>-0.07193730,43.20075583,428.96 -0.07215698,43.20059797,428.96</coordinates></LineString><LineString><tessellate>1</tessellate><altitudeMode>clampToGround</altitudeMode><coordinates>-0.07228879,43.20050326,428.96 -0.07250846,43.20034540,428.96</coordinates></LineString><LineString><tessellate>1</tessellate><altitudeMode>clampToGround</altitudeMode><coordinates>-0.07264027,43.20025068,428.96 -0.07285995,43.20009282,428.96</coordinates></LineString><LineString><tessellate>1</tessellate><altitudeMode>clampToGround</altitudeMode><coordinates>-0.07299176,43.19999810,428.96 -0.07321144,43.19984025,428.96</coordinates></LineString><LineString><tessellate>1</tessellate><altitudeMode>clampToGround</altitudeMode><coordinates>-0.07334324,43.19974553,428.96 -0.07356292,43.19958767,428.96</coordinates></LineString><LineString><tessellate>1</tessellate><altitudeMode>clampToGround</altitudeMode><coordinates>-0.07369473,43.19949295,428.96 -0.07391441,43.19933509,428.96</coordinates></LineString><LineString><tessellate>1</tessellate><altitudeMode>clampToGround</altitudeMode><coordinates>-0.07404621,43.19924038,428.96 -0.07426589,43.19908252,428.96</coordinates></LineString><LineString><tessellate>1</tessellate><altitudeMode>clampToGround</altitudeMode><coordinates>-0.07439770,43.19898780,428.96 -0.07461738,43.19882994,428.96</coordinates></LineString><LineString><tessellate>1</tessellate><altitudeMode>clampToGround</altitudeMode><coordinates>-0.07474919,43.19873523,428.96 -0.07496886,43.19857737,428.96</coordinates></LineString><LineString><tessellate>1</tessellate><altitudeMode>clampToGround</altitudeMode><coordinates>-0.07510067,43.19848265,428.96 -0.07517800,43.19842709,428.96</coordinates></LineString></MultiGeometry></Placemark>
<Placemark><name>sp02_v3_J285 — A</name><description>Azimut 225.4° — 3169 m</description><Point><altitudeMode>clampToGround</altitudeMode><coordinates>-0.07517800,43.19842709,428.96</coordinates></Point></Placemark>
<Placemark><name>Limite B</name><description>Azimut 199.0° — 3169 m</description><styleUrl>#s_limites</styleUrl><MultiGeometry><LineString><tessellate>1</tessellate><altitudeMode>clampToGround</altitudeMode><coordinates>-0.04733330,43.21843610,428.96 -0.04743382,43.21822354,428.96</coordinates></LineString><LineString><tessellate>1</tessellate><altitudeMode>clampToGround</altitudeMode><coordinates>-0.04749414,43.21809600,428.96 -0.04759466,43.21788344,428.96</coordinates></LineString><LineString><tessellate>1</tessellate><altitudeMode>clampToGround</altitudeMode><coordinates>-0.04765498,43.21775591,428.96 -0.04775550,43.21754335,428.96</coordinates></LineString><LineString><tessellate>1</tessellate><altitudeMode>clampToGround</altitudeMode><coordinates>-0.04781582,43.21741581,428.96 -0.04791634,43.21720325,428.96</coordinates></LineString><LineString><tessellate>1</tessellate><altitudeMode>clampToGround</altitudeMode><coordinates>-0.04797666,43.21707571,428.96 -0.04807718,43.21686315,428.96</coordinates></LineString><LineString><tessellate>1</tessellate><altitudeMode>clampToGround</altitudeMode><coordinates>-0.04813749,43.21673562,428.96 -0.04823802,43.21652305,428.96</coordinates></LineString><LineString><tessellate>1</tessellate><altitudeMode>clampToGround</altitudeMode><coordinates>-0.04829833,43.21639552,428.96 -0.04839886,43.21618296,428.96</coordinates></LineString><LineString><tessellate>1</tessellate><altitudeMode>clampToGround</altitudeMode><coordinates>-0.04845917,43.21605542,428.96 -0.04855970,43.21584286,428.96</coordinates></LineString><LineString><tessellate>1</tessellate><altitudeMode>clampToGround</altitudeMode><coordinates>-0.04862001,43.21571532,428.96 -0.04872053,43.21550276,428.96</coordinates></LineString><LineString><tessellate>1</tessellate><altitudeMode>clampToGround</altitudeMode><coordinates>-0.04878085,43.21537523,428.96 -0.04888137,43.21516267,428.96</coordinates></LineString><LineString><tessellate>1</tessellate><altitudeMode>clampToGround</altitudeMode><coordinates>-0.04894169,43.21503513,428.96 -0.04904221,43.21482257,428.96</coordinates></LineString><LineString><tessellate>1</tessellate><altitudeMode>clampToGround</altitudeMode><coordinates>-0.04910253,43.21469503,428.96 -0.04920305,43.21448247,428.96</coordinates></LineString><LineString><tessellate>1</tessellate><altitudeMode>clampToGround</altitudeMode><coordinates>-0.04926337,43.21435494,428.96 -0.04936389,43.21414238,428.96</coordinates></LineString><LineString><tessellate>1</tessellate><altitudeMode>clampToGround</altitudeMode><coordinates>-0.04942420,43.21401484,428.96 -0.04952473,43.21380228,428.96</coordinates></LineString><LineString><tessellate>1</tessellate><altitudeMode>clampToGround</altitudeMode><coordinates>-0.04958504,43.21367474,428.96 -0.04968557,43.21346218,428.96</coordinates></LineString><LineString><tessellate>1</tessellate><altitudeMode>clampToGround</altitudeMode><coordinates>-0.04974588,43.21333465,428.96 -0.04984641,43.21312209,428.96</coordinates></LineString><LineString><tessellate>1</tessellate><altitudeMode>clampToGround</altitudeMode><coordinates>-0.04990672,43.21299455,428.96 -0.05000725,43.21278199,428.96</coordinates></LineString><LineString><tessellate>1</tessellate><altitudeMode>clampToGround</altitudeMode><coordinates>-0.05006756,43.21265445,428.96 -0.05016808,43.21244189,428.96</coordinates></LineString><LineString><tessellate>1</tessellate><altitudeMode>clampToGround</altitudeMode><coordinates>-0.05022840,43.21231436,428.96 -0.05032892,43.21210179,428.96</coordinates></LineString><LineString><tessellate>1</tessellate><altitudeMode>clampToGround</altitudeMode><coordinates>-0.05038924,43.21197426,428.96 -0.05048976,43.21176170,428.96</coordinates></LineString><LineString><tessellate>1</tessellate><altitudeMode>clampToGround</altitudeMode><coordinates>-0.05055008,43.21163416,428.96 -0.05065060,43.21142160,428.96</coordinates></LineString><LineString><tessellate>1</tessellate><altitudeMode>clampToGround</altitudeMode><coordinates>-0.05071091,43.21129406,428.96 -0.05081144,43.21108150,428.96</coordinates></LineString><LineString><tessellate>1</tessellate><altitudeMode>clampToGround</altitudeMode><coordinates>-0.05087175,43.21095397,428.96 -0.05097228,43.21074141,428.96</coordinates></LineString><LineString><tessellate>1</tessellate><altitudeMode>clampToGround</altitudeMode><coordinates>-0.05103259,43.21061387,428.96 -0.05113312,43.21040131,428.96</coordinates></LineString><LineString><tessellate>1</tessellate><altitudeMode>clampToGround</altitudeMode><coordinates>-0.05119343,43.21027377,428.96 -0.05129396,43.21006121,428.96</coordinates></LineString><LineString><tessellate>1</tessellate><altitudeMode>clampToGround</altitudeMode><coordinates>-0.05135427,43.20993368,428.96 -0.05145479,43.20972112,428.96</coordinates></LineString><LineString><tessellate>1</tessellate><altitudeMode>clampToGround</altitudeMode><coordinates>-0.05151511,43.20959358,428.96 -0.05161563,43.20938102,428.96</coordinates></LineString><LineString><tessellate>1</tessellate><altitudeMode>clampToGround</altitudeMode><coordinates>-0.05167595,43.20925348,428.96 -0.05177647,43.20904092,428.96</coordinates></LineString><LineString><tessellate>1</tessellate><altitudeMode>clampToGround</altitudeMode><coordinates>-0.05183679,43.20891339,428.96 -0.05193731,43.20870083,428.96</coordinates></LineString><LineString><tessellate>1</tessellate><altitudeMode>clampToGround</altitudeMode><coordinates>-0.05199763,43.20857329,428.96 -0.05209815,43.20836073,428.96</coordinates></LineString><LineString><tessellate>1</tessellate><altitudeMode>clampToGround</altitudeMode><coordinates>-0.05215846,43.20823319,428.96 -0.05225899,43.20802063,428.96</coordinates></LineString><LineString><tessellate>1</tessellate><altitudeMode>clampToGround</altitudeMode><coordinates>-0.05231930,43.20789310,428.96 -0.05241983,43.20768053,428.96</coordinates></LineString><LineString><tessellate>1</tessellate><altitudeMode>clampToGround</altitudeMode><coordinates>-0.05248014,43.20755300,428.96 -0.05258067,43.20734044,428.96</coordinates></LineString><LineString><tessellate>1</tessellate><altitudeMode>clampToGround</altitudeMode><coordinates>-0.05264098,43.20721290,428.96 -0.05274150,43.20700034,428.96</coordinates></LineString><LineString><tessellate>1</tessellate><altitudeMode>clampToGround</altitudeMode><coordinates>-0.05280182,43.20687280,428.96 -0.05290234,43.20666024,428.96</coordinates></LineString><LineString><tessellate>1</tessellate><altitudeMode>clampToGround</altitudeMode><coordinates>-0.05296266,43.20653271,428.96 -0.05306318,43.20632015,428.96</coordinates></LineString><LineString><tessellate>1</tessellate><altitudeMode>clampToGround</altitudeMode><coordinates>-0.05312350,43.20619261,428.96 -0.05322402,43.20598005,428.96</coordinates></LineString><LineString><tessellate>1</tessellate><altitudeMode>clampToGround</altitudeMode><coordinates>-0.05328434,43.20585251,428.96 -0.05338486,43.20563995,428.96</coordinates></LineString><LineString><tessellate>1</tessellate><altitudeMode>clampToGround</altitudeMode><coordinates>-0.05344517,43.20551242,428.96 -0.05354570,43.20529986,428.96</coordinates></LineString><LineString><tessellate>1</tessellate><altitudeMode>clampToGround</altitudeMode><coordinates>-0.05360601,43.20517232,428.96 -0.05370654,43.20495976,428.96</coordinates></LineString><LineString><tessellate>1</tessellate><altitudeMode>clampToGround</altitudeMode><coordinates>-0.05376685,43.20483222,428.96 -0.05386738,43.20461966,428.96</coordinates></LineString><LineString><tessellate>1</tessellate><altitudeMode>clampToGround</altitudeMode><coordinates>-0.05392769,43.20449213,428.96 -0.05402822,43.20427957,428.96</coordinates></LineString><LineString><tessellate>1</tessellate><altitudeMode>clampToGround</altitudeMode><coordinates>-0.05408853,43.20415203,428.96 -0.05418905,43.20393947,428.96</coordinates></LineString><LineString><tessellate>1</tessellate><altitudeMode>clampToGround</altitudeMode><coordinates>-0.05424937,43.20381193,428.96 -0.05434989,43.20359937,428.96</coordinates></LineString><LineString><tessellate>1</tessellate><altitudeMode>clampToGround</altitudeMode><coordinates>-0.05441021,43.20347184,428.96 -0.05451073,43.20325927,428.96</coordinates></LineString><LineString><tessellate>1</tessellate><altitudeMode>clampToGround</altitudeMode><coordinates>-0.05457105,43.20313174,428.96 -0.05467157,43.20291918,428.96</coordinates></LineString><LineString><tessellate>1</tessellate><altitudeMode>clampToGround</altitudeMode><coordinates>-0.05473188,43.20279164,428.96 -0.05483241,43.20257908,428.96</coordinates></LineString><LineString><tessellate>1</tessellate><altitudeMode>clampToGround</altitudeMode><coordinates>-0.05489272,43.20245154,428.96 -0.05499325,43.20223898,428.96</coordinates></LineString><LineString><tessellate>1</tessellate><altitudeMode>clampToGround</altitudeMode><coordinates>-0.05505356,43.20211145,428.96 -0.05515409,43.20189889,428.96</coordinates></LineString><LineString><tessellate>1</tessellate><altitudeMode>clampToGround</altitudeMode><coordinates>-0.05521440,43.20177135,428.96 -0.05531493,43.20155879,428.96</coordinates></LineString><LineString><tessellate>1</tessellate><altitudeMode>clampToGround</altitudeMode><coordinates>-0.05537524,43.20143125,428.96 -0.05547576,43.20121869,428.96</coordinates></LineString><LineString><tessellate>1</tessellate><altitudeMode>clampToGround</altitudeMode><coordinates>-0.05553608,43.20109116,428.96 -0.05563660,43.20087860,428.96</coordinates></LineString><LineString><tessellate>1</tessellate><altitudeMode>clampToGround</altitudeMode><coordinates>-0.05569692,43.20075106,428.96 -0.05579744,43.20053850,428.96</coordinates></LineString><LineString><tessellate>1</tessellate><altitudeMode>clampToGround</altitudeMode><coordinates>-0.05585776,43.20041096,428.96 -0.05595828,43.20019840,428.96</coordinates></LineString><LineString><tessellate>1</tessellate><altitudeMode>clampToGround</altitudeMode><coordinates>-0.05601860,43.20007087,428.96 -0.05611912,43.19985831,428.96</coordinates></LineString><LineString><tessellate>1</tessellate><altitudeMode>clampToGround</altitudeMode><coordinates>-0.05617943,43.19973077,428.96 -0.05627996,43.19951821,428.96</coordinates></LineString><LineString><tessellate>1</tessellate><altitudeMode>clampToGround</altitudeMode><coordinates>-0.05634027,43.19939067,428.96 -0.05644080,43.19917811,428.96</coordinates></LineString><LineString><tessellate>1</tessellate><altitudeMode>clampToGround</altitudeMode><coordinates>-0.05650111,43.19905058,428.96 -0.05660164,43.19883801,428.96</coordinates></LineString><LineString><tessellate>1</tessellate><altitudeMode>clampToGround</altitudeMode><coordinates>-0.05666195,43.19871048,428.96 -0.05676247,43.19849792,428.96</coordinates></LineString><LineString><tessellate>1</tessellate><altitudeMode>clampToGround</altitudeMode><coordinates>-0.05682279,43.19837038,428.96 -0.05692331,43.19815782,428.96</coordinates></LineString><LineString><tessellate>1</tessellate><altitudeMode>clampToGround</altitudeMode><coordinates>-0.05698363,43.19803028,428.96 -0.05708415,43.19781772,428.96</coordinates></LineString><LineString><tessellate>1</tessellate><altitudeMode>clampToGround</altitudeMode><coordinates>-0.05714447,43.19769019,428.96 -0.05724499,43.19747763,428.96</coordinates></LineString><LineString><tessellate>1</tessellate><altitudeMode>clampToGround</altitudeMode><coordinates>-0.05730531,43.19735009,428.96 -0.05740583,43.19713753,428.96</coordinates></LineString><LineString><tessellate>1</tessellate><altitudeMode>clampToGround</altitudeMode><coordinates>-0.05746614,43.19700999,428.96 -0.05756667,43.19679743,428.96</coordinates></LineString><LineString><tessellate>1</tessellate><altitudeMode>clampToGround</altitudeMode><coordinates>-0.05762698,43.19666990,428.96 -0.05772751,43.19645734,428.96</coordinates></LineString><LineString><tessellate>1</tessellate><altitudeMode>clampToGround</altitudeMode><coordinates>-0.05778782,43.19632980,428.96 -0.05788835,43.19611724,428.96</coordinates></LineString><LineString><tessellate>1</tessellate><altitudeMode>clampToGround</altitudeMode><coordinates>-0.05794866,43.19598970,428.96 -0.05804919,43.19577714,428.96</coordinates></LineString><LineString><tessellate>1</tessellate><altitudeMode>clampToGround</altitudeMode><coordinates>-0.05810950,43.19564961,428.96 -0.05821002,43.19543705,428.96</coordinates></LineString><LineString><tessellate>1</tessellate><altitudeMode>clampToGround</altitudeMode><coordinates>-0.05827034,43.19530951,428.96 -0.05837086,43.19509695,428.96</coordinates></LineString><LineString><tessellate>1</tessellate><altitudeMode>clampToGround</altitudeMode><coordinates>-0.05843118,43.19496941,428.96 -0.05853170,43.19475685,428.96</coordinates></LineString><LineString><tessellate>1</tessellate><altitudeMode>clampToGround</altitudeMode><coordinates>-0.05859202,43.19462932,428.96 -0.05869254,43.19441675,428.96</coordinates></LineString><LineString><tessellate>1</tessellate><altitudeMode>clampToGround</altitudeMode><coordinates>-0.05875285,43.19428922,428.96 -0.05885338,43.19407666,428.96</coordinates></LineString><LineString><tessellate>1</tessellate><altitudeMode>clampToGround</altitudeMode><coordinates>-0.05891369,43.19394912,428.96 -0.05901422,43.19373656,428.96</coordinates></LineString><LineString><tessellate>1</tessellate><altitudeMode>clampToGround</altitudeMode><coordinates>-0.05907453,43.19360902,428.96 -0.05917506,43.19339646,428.96</coordinates></LineString><LineString><tessellate>1</tessellate><altitudeMode>clampToGround</altitudeMode><coordinates>-0.05923537,43.19326893,428.96 -0.05933590,43.19305637,428.96</coordinates></LineString><LineString><tessellate>1</tessellate><altitudeMode>clampToGround</altitudeMode><coordinates>-0.05939621,43.19292883,428.96 -0.05949673,43.19271627,428.96</coordinates></LineString><LineString><tessellate>1</tessellate><altitudeMode>clampToGround</altitudeMode><coordinates>-0.05955705,43.19258873,428.96 -0.05965757,43.19237617,428.96</coordinates></LineString><LineString><tessellate>1</tessellate><altitudeMode>clampToGround</altitudeMode><coordinates>-0.05971789,43.19224864,428.96 -0.05981841,43.19203608,428.96</coordinates></LineString><LineString><tessellate>1</tessellate><altitudeMode>clampToGround</altitudeMode><coordinates>-0.05987873,43.19190854,428.96 -0.05997925,43.19169598,428.96</coordinates></LineString><LineString><tessellate>1</tessellate><altitudeMode>clampToGround</altitudeMode><coordinates>-0.06003957,43.19156844,428.96 -0.06007495,43.19149362,428.96</coordinates></LineString></MultiGeometry></Placemark>
<Placemark><name>sp02_v3_J285 — B</name><description>Azimut 199.0° — 3169 m</description><Point><altitudeMode>clampToGround</altitudeMode><coordinates>-0.06007495,43.19149362,428.96</coordinates></Point></Placemark>
<Placemark><name>Contour du secteur</name><description>Secteur demandé, non découpé par la zone</description><styleUrl>#s_secteur</styleUrl><MultiGeometry><LineString><tessellate>1</tessellate><altitudeMode>clampToGround</altitudeMode><coordinates>-0.04733330,43.21843610,428.96 -0.07517800,43.19842709,428.96 -0.07425992,43.19777054,428.96 -0.07331272,43.19713636,428.96 -0.07233740,43.19652522,428.96 -0.07133503,43.19593779,428.96 -0.07030670,43.19537470,428.96 -0.06925350,43.19483656,428.96 -0.06817660,43.19432396,428.96 -0.06707713,43.19383744,428.96 -0.06595631,43.19337754,428.96 -0.06481534,43.19294475,428.96 -0.06365545,43.19253954,428.96 -0.06247791,43.19216235,428.96 -0.06128398,43.19181358,428.96 -0.06007495,43.19149362,428.96 -0.04733330,43.21843610,428.96</coordinates></LineString></MultiGeometry></Placemark>
<Placemark><name>Cercle de portée (3169 m)</name><description></description><styleUrl>#s_cercle</styleUrl><MultiGeometry><LineString><tessellate>1</tessellate><altitudeMode>clampToGround</altitudeMode><coordinates>-0.00822835,43.21843610,428.96 -0.00825218,43.21943065,428.96 -0.00832361,43.22042400,428.96 -0.00844258,43.22141492,428.96 -0.00860892,43.22240221,428.96 -0.00882245,43.22338467,428.96 -0.00908289,43.22436110,428.96 -0.00938994,43.22533031,428.96 -0.00974321,43.22629112,428.96 -0.01014229,43.22724236,428.96 -0.01058667,43.22818288,428.96 -0.01107583,43.22911151,428.96 -0.01160915,43.23002714,428.96 -0.01218601,43.23092865,428.96 -0.01280568,43.23181494,428.96 -0.01346742,43.23268493,428.96 -0.01417043,43.23353756,428.96 -0.01491383,43.23437179,428.96 -0.01569673,43.23518661,428.96 -0.01651818,43.23598101,428.96 -0.01737717,43.23675405,428.96 -0.01827266,43.23750476,428.96 -0.01920356,43.23823224,428.96 -0.02016872,43.23893560,428.96 -0.02116698,43.23961399,428.96 -0.02219713,43.24026658,428.96 -0.02325789,43.24089257,428.96 -0.02434799,43.24149119,428.96 -0.02546609,43.24206173,428.96 -0.02661084,43.24260349,428.96 -0.02778083,43.24311580,428.96 -0.02897464,43.24359804,428.96 -0.03019082,43.24404963,428.96 -0.03142789,43.24447001,428.96 -0.03268433,43.24485867,428.96 -0.03395862,43.24521514,428.96 -0.03524921,43.24553899,428.96 -0.03655452,43.24582981,428.96 -0.03787296,43.24608726,428.96 -0.03920292,43.24631102,428.96 -0.04054280,43.24650082,428.96 -0.04189094,43.24665643,428.96 -0.04324572,43.24677765,428.96 -0.04460548,43.24686434,428.96 -0.04596856,43.24691640,428.96 -0.04733330,43.24693376,428.96 -0.04869804,43.24691640,428.96 -0.05006112,43.24686434,428.96 -0.05142088,43.24677765,428.96 -0.05277566,43.24665643,428.96 -0.05412380,43.24650082,428.96 -0.05546368,43.24631102,428.96 -0.05679364,43.24608726,428.96 -0.05811208,43.24582981,428.96 -0.05941739,43.24553899,428.96 -0.06070798,43.24521514,428.96 -0.06198227,43.24485867,428.96 -0.06323871,43.24447001,428.96 -0.06447578,43.24404963,428.96 -0.06569196,43.24359804,428.96 -0.06688577,43.24311580,428.96 -0.06805576,43.24260349,428.96 -0.06920051,43.24206173,428.96 -0.07031861,43.24149119,428.96 -0.07140871,43.24089257,428.96 -0.07246947,43.24026658,428.96 -0.07349962,43.23961399,428.96 -0.07449788,43.23893560,428.96 -0.07546304,43.23823224,428.96 -0.07639394,43.23750476,428.96 -0.07728943,43.23675405,428.96 -0.07814842,43.23598101,428.96 -0.07896987,43.23518661,428.96 -0.07975277,43.23437179,428.96 -0.08049617,43.23353756,428.96 -0.08119918,43.23268493,428.96 -0.08186092,43.23181494,428.96 -0.08248059,43.23092865,428.96 -0.08305745,43.23002714,428.96 -0.08359077,43.22911151,428.96 -0.08407993,43.22818288,428.96 -0.08452431,43.22724236,428.96 -0.08492339,43.22629112,428.96 -0.08527666,43.22533031,428.96 -0.08558371,43.22436110,428.96 -0.08584415,43.22338467,428.96 -0.08605768,43.22240221,428.96 -0.08622402,43.22141492,428.96 -0.08634299,43.22042400,428.96 -0.08641442,43.21943065,428.96 -0.08643825,43.21843610,428.96 -0.08641442,43.21744155,428.96 -0.08634299,43.21644820,428.96 -0.08622402,43.21545728,428.96 -0.08605768,43.21446999,428.96 -0.08584415,43.21348753,428.96 -0.08558371,43.21251110,428.96 -0.08527666,43.21154189,428.96 -0.08492339,43.21058108,428.96 -0.08452431,43.20962984,428.96 -0.08407993,43.20868932,428.96 -0.08359077,43.20776069,428.96 -0.08305745,43.20684506,428.96 -0.08248059,43.20594355,428.96 -0.08186092,43.20505726,428.96 -0.08119918,43.20418727,428.96 -0.08049617,43.20333464,428.96 -0.07975277,43.20250041,428.96 -0.07896987,43.20168559,428.96 -0.07814842,43.20089119,428.96 -0.07728943,43.20011815,428.96 -0.07639394,43.19936744,428.96 -0.07546304,43.19863996,428.96 -0.07449788,43.19793660,428.96 -0.07349962,43.19725821,428.96 -0.07246947,43.19660562,428.96 -0.07140871,43.19597963,428.96 -0.07031861,43.19538101,428.96 -0.06920051,43.19481047,428.96 -0.06805576,43.19426871,428.96 -0.06688577,43.19375640,428.96 -0.06569196,43.19327416,428.96 -0.06447578,43.19282257,428.96 -0.06323871,43.19240219,428.96 -0.06198227,43.19201353,428.96 -0.06070798,43.19165706,428.96 -0.05941739,43.19133321,428.96 -0.05811208,43.19104239,428.96 -0.05679364,43.19078494,428.96 -0.05546368,43.19056118,428.96 -0.05412380,43.19037138,428.96 -0.05277566,43.19021577,428.96 -0.05142088,43.19009455,428.96 -0.05006112,43.19000786,428.96 -0.04869804,43.18995580,428.96 -0.04733330,43.18993844,428.96 -0.04596856,43.18995580,428.96 -0.04460548,43.19000786,428.96 -0.04324572,43.19009455,428.96 -0.04189094,43.19021577,428.96 -0.04054280,43.19037138,428.96 -0.03920292,43.19056118,428.96 -0.03787296,43.19078494,428.96 -0.03655452,43.19104239,428.96 -0.03524921,43.19133321,428.96 -0.03395862,43.19165706,428.96 -0.03268433,43.19201353,428.96 -0.03142789,43.19240219,428.96 -0.03019082,43.19282257,428.96 -0.02897464,43.19327416,428.96 -0.02778083,43.19375640,428.96 -0.02661084,43.19426871,428.96 -0.02546609,43.19481047,428.96 -0.02434799,43.19538101,428.96 -0.02325789,43.19597963,428.96 -0.02219713,43.19660562,428.96 -0.02116698,43.19725821,428.96 -0.02016872,43.19793660,428.96 -0.01920356,43.19863996,428.96 -0.01827266,43.19936744,428.96 -0.01737717,43.20011815,428.96 -0.01651818,43.20089119,428.96 -0.01569673,43.20168559,428.96 -0.01491383,43.20250041,428.96 -0.01417043,43.20333464,428.96 -0.01346742,43.20418727,428.96 -0.01280568,43.20505726,428.96 -0.01218601,43.20594355,428.96 -0.01160915,43.20684506,428.96 -0.01107583,43.20776069,428.96 -0.01058667,43.20868932,428.96 -0.01014229,43.20962984,428.96 -0.00974321,43.21058108,428.96 -0.00938994,43.21154189,428.96 -0.00908289,43.21251110,428.96 -0.00882245,43.21348753,428.96 -0.00860892,43.21446999,428.96 -0.00844258,43.21545728,428.96 -0.00832361,43.21644820,428.96 -0.00825218,43.21744155,428.96 -0.00822835,43.21843610,428.96</coordinates></LineString></MultiGeometry></Placemark>
</Folder>
<Folder><name>Trajectoires</name><open>1</open>
<Folder><name>SP02 J285</name><open>1</open>
<Placemark><name>alpha 80 nominal</name><description>Groupe : SP02 J285&lt;br/&gt;Fichier : alpha_80.csv&lt;br/&gt;Pas de tir : Rampe FusEx&lt;br/&gt;Azimut : 212.2°&lt;br/&gt;Apogée : 1034 m&lt;br/&gt;Portée : 459 m&lt;br/&gt;Points : 150 / 403&lt;br/&gt;Rideau : quadrillage_45</description><styleUrl>#s_v0_0</styleUrl><LineString><extrude>0</extrude><altitudeMode>absolute</altitudeMode><coordinates>-0.04733330,43.21843610,428.96 -0.04733331,43.21843609,428.96 -0.04733334,43.21843605,428.99 -0.04733343,43.21843595,429.05 -0.04733359,43.21843577,429.18 -0.04733375,43.21843558,429.31 -0.04733402,43.21843527,429.53 -0.04733439,43.21843484,429.83 -0.04733483,43.21843433,430.21 -0.04733517,43.21843393,430.50 -0.04733575,43.21843326,430.98 -0.04733640,43.21843251,431.53 -0.04733688,43.21843195,431.94 -0.04733767,43.21843105,432.60 -0.04733867,43.21842988,433.45 -0.04734054,43.21842772,435.01 -0.04734444,43.21842321,438.23 -0.04735173,43.21841478,444.14 -0.04736141,43.21840358,451.87 -0.04736902,43.21839478,457.86 -0.04737978,43.21838233,466.20 -0.04739478,43.21836498,477.55 -0.04740600,43.21835200,485.88 -0.04742461,43.21833047,499.45 -0.04743311,43.21832064,505.59 -0.04743734,43.21831574,508.63 -0.04745449,43.21829590,520.91 -0.04747781,43.21826893,537.40 -0.04750305,43.21823973,554.97 -0.04751939,43.21822083,566.24 -0.04754746,43.21818835,585.44 -0.04757724,43.21815390,605.57 -0.04759800,43.21812989,619.47 -0.04763041,43.21809239,641.00 -0.04766432,43.21805317,663.29 -0.04768772,43.21802609,678.55 -0.04772395,43.21798419,701.99 -0.04776131,43.21794097,725.94 -0.04779927,43.21789705,750.05 -0.04782471,43.21786762,766.08 -0.04786285,43.21782350,789.94 -0.04790081,43.21777959,813.47 -0.04792594,43.21775052,828.92 -0.04796334,43.21770725,851.73 -0.04800035,43.21766443,874.10 -0.04802482,43.21763613,888.76 -0.04806124,43.21759400,910.39 -0.04809718,43.21755242,931.53 -0.04813236,43.21751172,952.00 -0.04815540,43.21748508,965.28 -0.04818934,43.21744581,984.67 -0.04822259,43.21740735,1003.45 -0.04824439,43.21738212,1015.64 -0.04827658,43.21734488,1033.45 -0.04830818,43.21730834,1050.72 -0.04832892,43.21728434,1061.94 -0.04835959,43.21724886,1078.34 -0.04838973,43.21721399,1094.25 -0.04840956,43.21719105,1104.58 -0.04843889,43.21715712,1119.70 -0.04846778,43.21712370,1134.36 -0.04849622,43.21709080,1148.58 -0.04851495,43.21706913,1157.83 -0.04854271,43.21703701,1171.35 -0.04857009,43.21700534,1184.46 -0.04858813,43.21698447,1192.98 -0.04861491,43.21695349,1205.45 -0.04864134,43.21692292,1217.53 -0.04865878,43.21690275,1225.38 -0.04868467,43.21687279,1236.86 -0.04871026,43.21684319,1247.98 -0.04873556,43.21681393,1258.75 -0.04875227,43.21679459,1265.75 -0.04877710,43.21676587,1275.97 -0.04880168,43.21673743,1285.86 -0.04881792,43.21671864,1292.28 -0.04884209,43.21669069,1301.64 -0.04886602,43.21666300,1310.69 -0.04888185,43.21664470,1316.56 -0.04890541,43.21661744,1325.11 -0.04892876,43.21659043,1333.36 -0.04895190,43.21656365,1341.33 -0.04896723,43.21654592,1346.48 -0.04899006,43.21651951,1353.97 -0.04901271,43.21649331,1361.19 -0.04902771,43.21647595,1365.84 -0.04905007,43.21645009,1372.61 -0.04907227,43.21642441,1379.10 -0.04908698,43.21640739,1383.28 -0.04910893,43.21638200,1389.33 -0.04913072,43.21635679,1395.13 -0.04915237,43.21633174,1400.67 -0.04916674,43.21631512,1404.22 -0.04918817,43.21629033,1409.34 -0.04920947,43.21626570,1414.21 -0.04922360,43.21624934,1417.32 -0.04924470,43.21622493,1421.79 -0.04926569,43.21620065,1426.01 -0.04927962,43.21618454,1428.69 -0.04930043,43.21616047,1432.51 -0.04932113,43.21613652,1436.09 -0.04933487,43.21612063,1438.35 -0.04935540,43.21609687,1441.55 -0.04937584,43.21607323,1444.51 -0.04939619,43.21604968,1447.25 -0.04940970,43.21603405,1448.94 -0.04942990,43.21601069,1451.30 -0.04945002,43.21598742,1453.42 -0.04946338,43.21597196,1454.72 -0.04948335,43.21594885,1456.47 -0.04950325,43.21592584,1458.01 -0.04951647,43.21591054,1458.90 -0.04953624,43.21588767,1460.07 -0.04955594,43.21586488,1461.01 -0.04957557,43.21584217,1461.74 -0.04958862,43.21582708,1462.11 -0.04960814,43.21580449,1462.47 -0.04963407,43.21577450,1462.63 -0.04964054,43.21576702,1462.61 -0.04967916,43.21572234,1461.96 -0.04971779,43.21567765,1460.37 -0.04974354,43.21564786,1458.75 -0.04978221,43.21560313,1455.42 -0.04982104,43.21555821,1450.90 -0.04986018,43.21551293,1445.04 -0.04988656,43.21548242,1440.29 -0.04992674,43.21543593,1431.67 -0.04996794,43.21538827,1420.90 -0.04999617,43.21535562,1412.22 -0.05004002,43.21530488,1396.28 -0.05008628,43.21525138,1375.53 -0.05011887,43.21521367,1357.82 -0.05017130,43.21515302,1321.94 -0.05022643,43.21508924,1268.70 -0.05026677,43.21504258,1210.65 -0.05028626,43.21502003,1171.33 -0.05030750,43.21499546,1111.96 -0.05032184,43.21497887,1052.43 -0.05032869,43.21497094,1012.74 -0.05033611,43.21496236,953.28 -0.05034109,43.21495659,893.95 -0.05034347,43.21495385,854.47 -0.05034602,43.21495090,795.40 -0.05034773,43.21494892,736.49 -0.05034888,43.21494759,677.75 -0.05034942,43.21494696,638.69 -0.05035000,43.21494629,580.23 -0.05035039,43.21494584,521.93 -0.05035057,43.21494563,483.16 -0.05035076,43.21494542,428.96</coordinates></LineString></Placemark>
<Placemark><name>alpha 80 nominal — quadrillage_45</name><description>Motif : quadrillage_45 (45°, 135°)&lt;br/&gt;Pas : 150 m&lt;br/&gt;Segments : 12</description><styleUrl>#s_v0_0_m</styleUrl><MultiGeometry><LineString><altitudeMode>absolute</altitudeMode><coordinates>-0.05012397,43.21520778,398.96 -0.05035064,43.21494555,463.42</coordinates></LineString><LineString><altitudeMode>absolute</altitudeMode><coordinates>-0.04872863,43.21682194,398.96 -0.05034891,43.21494755,675.29</coordinates></LineString><LineString><altitudeMode>absolute</altitudeMode><coordinates>-0.04733330,43.21843610,398.96 -0.05034155,43.21495606,886.30</coordinates></LineString><LineString><altitudeMode>absolute</altitudeMode><coordinates>-0.04772091,43.21798771,700.02 -0.05031184,43.21499043,1093.92</coordinates></LineString><LineString><altitudeMode>absolute</altitudeMode><coordinates>-0.04818623,43.21744940,982.90 -0.05020463,43.21511446,1289.75</coordinates></LineString><LineString><altitudeMode>absolute</altitudeMode><coordinates>-0.04881294,43.21672441,1290.30 -0.04984535,43.21553009,1447.26</coordinates></LineString><LineString><altitudeMode>absolute</altitudeMode><coordinates>-0.05023171,43.21508314,1261.11 -0.04921567,43.21625852,1415.58</coordinates></LineString><LineString><altitudeMode>absolute</altitudeMode><coordinates>-0.05032488,43.21497535,1034.81 -0.04876672,43.21677787,1271.70</coordinates></LineString><LineString><altitudeMode>absolute</altitudeMode><coordinates>-0.05034497,43.21495211,819.62 -0.04842347,43.21717496,1111.75</coordinates></LineString><LineString><altitudeMode>absolute</altitudeMode><coordinates>-0.05034974,43.21494660,606.77 -0.04812129,43.21752453,945.56</coordinates></LineString><LineString><altitudeMode>absolute</altitudeMode><coordinates>-0.05012396,43.21520778,398.96 -0.04784070,43.21784912,776.08</coordinates></LineString><LineString><altitudeMode>absolute</altitudeMode><coordinates>-0.04872863,43.21682194,398.96 -0.04757535,43.21815608,604.29</coordinates></LineString></MultiGeometry></Placemark>
<Placemark><name>alpha 80 nominal — trace au sol</name><description>Projection au sol</description><styleUrl>#s_v0_0</styleUrl><LineString><tessellate>1</tessellate><altitudeMode>clampToGround</altitudeMode><coordinates>-0.04733330,43.21843610,428.96 -0.04733331,43.21843609,428.96 -0.04733334,43.21843605,428.96 -0.04733343,43.21843595,428.96 -0.04733359,43.21843577,428.96 -0.04733375,43.21843558,428.96 -0.04733402,43.21843527,428.96 -0.04733439,43.21843484,428.96 -0.04733483,43.21843433,428.96 -0.04733517,43.21843393,428.96 -0.04733575,43.21843326,428.96 -0.04733640,43.21843251,428.96 -0.04733688,43.21843195,428.96 -0.04733767,43.21843105,428.96 -0.04733867,43.21842988,428.96 -0.04734054,43.21842772,428.96 -0.04734444,43.21842321,428.96 -0.04735173,43.21841478,428.96 -0.04736141,43.21840358,428.96 -0.04736902,43.21839478,428.96 -0.04737978,43.21838233,428.96 -0.04739478,43.21836498,428.96 -0.04740600,43.21835200,428.96 -0.04742461,43.21833047,428.96 -0.04743311,43.21832064,428.96 -0.04743734,43.21831574,428.96 -0.04745449,43.21829590,428.96 -0.04747781,43.21826893,428.96 -0.04750305,43.21823973,428.96 -0.04751939,43.21822083,428.96 -0.04754746,43.21818835,428.96 -0.04757724,43.21815390,428.96 -0.04759800,43.21812989,428.96 -0.04763041,43.21809239,428.96 -0.04766432,43.21805317,428.96 -0.04768772,43.21802609,428.96 -0.04772395,43.21798419,428.96 -0.04776131,43.21794097,428.96 -0.04779927,43.21789705,428.96 -0.04782471,43.21786762,428.96 -0.04786285,43.21782350,428.96 -0.04790081,43.21777959,428.96 -0.04792594,43.21775052,428.96 -0.04796334,43.21770725,428.96 -0.04800035,43.21766443,428.96 -0.04802482,43.21763613,428.96 -0.04806124,43.21759400,428.96 -0.04809718,43.21755242,428.96 -0.04813236,43.21751172,428.96 -0.04815540,43.21748508,428.96 -0.04818934,43.21744581,428.96 -0.04822259,43.21740735,428.96 -0.04824439,43.21738212,428.96 -0.04827658,43.21734488,428.96 -0.04830818,43.21730834,428.96 -0.04832892,43.21728434,428.96 -0.04835959,43.21724886,428.96 -0.04838973,43.21721399,428.96 -0.04840956,43.21719105,428.96 -0.04843889,43.21715712,428.96 -0.04846778,43.21712370,428.96 -0.04849622,43.21709080,428.96 -0.04851495,43.21706913,428.96 -0.04854271,43.21703701,428.96 -0.04857009,43.21700534,428.96 -0.04858813,43.21698447,428.96 -0.04861491,43.21695349,428.96 -0.04864134,43.21692292,428.96 -0.04865878,43.21690275,428.96 -0.04868467,43.21687279,428.96 -0.04871026,43.21684319,428.96 -0.04873556,43.21681393,428.96 -0.04875227,43.21679459,428.96 -0.04877710,43.21676587,428.96 -0.04880168,43.21673743,428.96 -0.04881792,43.21671864,428.96 -0.04884209,43.21669069,428.96 -0.04886602,43.21666300,428.96 -0.04888185,43.21664470,428.96 -0.04890541,43.21661744,428.96 -0.04892876,43.21659043,428.96 -0.04895190,43.21656365,428.96 -0.04896723,43.21654592,428.96 -0.04899006,43.21651951,428.96 -0.04901271,43.21649331,428.96 -0.04902771,43.21647595,428.96 -0.04905007,43.21645009,428.96 -0.04907227,43.21642441,428.96 -0.04908698,43.21640739,428.96 -0.04910893,43.21638200,428.96 -0.04913072,43.21635679,428.96 -0.04915237,43.21633174,428.96 -0.04916674,43.21631512,428.96 -0.04918817,43.21629033,428.96 -0.04920947,43.21626570,428.96 -0.04922360,43.21624934,428.96 -0.04924470,43.21622493,428.96 -0.04926569,43.21620065,428.96 -0.04927962,43.21618454,428.96 -0.04930043,43.21616047,428.96 -0.04932113,43.21613652,428.96 -0.04933487,43.21612063,428.96 -0.04935540,43.21609687,428.96 -0.04937584,43.21607323,428.96 -0.04939619,43.21604968,428.96 -0.04940970,43.21603405,428.96 -0.04942990,43.21601069,428.96 -0.04945002,43.21598742,428.96 -0.04946338,43.21597196,428.96 -0.04948335,43.21594885,428.96 -0.04950325,43.21592584,428.96 -0.04951647,43.21591054,428.96 -0.04953624,43.21588767,428.96 -0.04955594,43.21586488,428.96 -0.04957557,43.21584217,428.96 -0.04958862,43.21582708,428.96 -0.04960814,43.21580449,428.96 -0.04963407,43.21577450,428.96 -0.04964054,43.21576702,428.96 -0.04967916,43.21572234,428.96 -0.04971779,43.21567765,428.96 -0.04974354,43.21564786,428.96 -0.04978221,43.21560313,428.96 -0.04982104,43.21555821,428.96 -0.04986018,43.21551293,428.96 -0.04988656,43.21548242,428.96 -0.04992674,43.21543593,428.96 -0.04996794,43.21538827,428.96 -0.04999617,43.21535562,428.96 -0.05004002,43.21530488,428.96 -0.05008628,43.21525138,428.96 -0.05011887,43.21521367,428.96 -0.05017130,43.21515302,428.96 -0.05022643,43.21508924,428.96 -0.05026677,43.21504258,428.96 -0.05028626,43.21502003,428.96 -0.05030750,43.21499546,428.96 -0.05032184,43.21497887,428.96 -0.05032869,43.21497094,428.96 -0.05033611,43.21496236,428.96 -0.05034109,43.21495659,428.96 -0.05034347,43.21495385,428.96 -0.05034602,43.21495090,428.96 -0.05034773,43.21494892,428.96 -0.05034888,43.21494759,428.96 -0.05034942,43.21494696,428.96 -0.05035000,43.21494629,428.96 -0.05035039,43.21494584,428.96 -0.05035057,43.21494563,428.96 -0.05035076,43.21494542,428.96</coordinates></LineString></Placemark>
<Placemark><name>beta 80 nominal</name><description>Groupe : SP02 J285&lt;br/&gt;Fichier : beta_80.csv&lt;br/&gt;Pas de tir : Rampe FusEx&lt;br/&gt;Azimut : 212.2°&lt;br/&gt;Apogée : 2191 m&lt;br/&gt;Portée : 975 m&lt;br/&gt;Points : 150 / 629&lt;br/&gt;Rideau : quadrillage_45</description><styleUrl>#s_v0_1</styleUrl><LineString><extrude>0</extrude><altitudeMode>absolute</altitudeMode><coordinates>-0.04733330,43.21843610,428.96 -0.04733332,43.21843608,428.97 -0.04733343,43.21843595,429.05 -0.04733375,43.21843558,429.31 -0.04733413,43.21843514,429.62 -0.04733467,43.21843451,430.08 -0.04733536,43.21843372,430.65 -0.04733640,43.21843251,431.53 -0.04733740,43.21843136,432.37 -0.04733867,43.21842988,433.45 -0.04734322,43.21842463,437.23 -0.04735173,43.21841478,444.14 -0.04736902,43.21839478,457.86 -0.04738453,43.21837683,469.83 -0.04740600,43.21835200,485.88 -0.04743125,43.21832278,504.25 -0.04743734,43.21831574,508.63 -0.04746982,43.21827817,531.78 -0.04750305,43.21823973,554.97 -0.04753792,43.21819939,578.93 -0.04757724,43.21815390,605.57 -0.04763041,43.21809239,641.00 -0.04767594,43.21803972,670.88 -0.04772395,43.21798419,701.99 -0.04777392,43.21792637,733.97 -0.04782471,43.21786762,766.08 -0.04788818,43.21779419,805.67 -0.04793845,43.21773604,836.58 -0.04798805,43.21767866,866.69 -0.04803700,43.21762203,896.02 -0.04808530,43.21756616,924.57 -0.04814467,43.21749749,959.11 -0.04819134,43.21744349,985.84 -0.04823987,43.21738736,1013.21 -0.04829404,43.21732469,1043.36 -0.04837000,43.21723682,1085.05 -0.04843731,43.21715894,1121.53 -0.04851011,43.21707473,1160.58 -0.04858798,43.21698465,1201.93 -0.04867049,43.21688920,1245.36 -0.04877940,43.21676321,1302.11 -0.04887032,43.21665803,1349.04 -0.04896203,43.21655193,1395.99 -0.04903440,43.21646821,1432.75 -0.04908825,43.21640592,1459.94 -0.04919640,43.21628081,1514.11 -0.04928031,43.21618374,1555.70 -0.04936209,43.21608913,1595.84 -0.04944188,43.21599683,1634.63 -0.04953902,43.21588446,1681.30 -0.04961479,43.21579681,1717.27 -0.04968894,43.21571102,1752.09 -0.04976159,43.21562698,1785.81 -0.04983280,43.21554460,1818.48 -0.04991993,43.21544381,1857.90 -0.04998822,43.21536482,1888.37 -0.05005530,43.21528721,1917.91 -0.05012126,43.21521090,1946.56 -0.05018614,43.21513585,1974.37 -0.05026582,43.21504367,2007.96 -0.05032847,43.21497120,2033.94 -0.05039021,43.21489978,2059.15 -0.05045107,43.21482937,2083.62 -0.05052599,43.21474271,2113.19 -0.05058503,43.21467441,2136.06 -0.05064332,43.21460697,2158.24 -0.05070089,43.21454038,2179.77 -0.05075777,43.21447457,2200.65 -0.05082794,43.21439340,2225.86 -0.05088338,43.21432927,2245.34 -0.05093821,43.21426583,2264.22 -0.05099247,43.21420306,2282.52 -0.05104618,43.21414093,2300.24 -0.05111257,43.21406412,2321.59 -0.05116512,43.21400333,2338.06 -0.05121719,43.21394311,2353.98 -0.05126878,43.21388342,2369.38 -0.05133266,43.21380953,2387.89 -0.05138327,43.21375097,2402.12 -0.05143349,43.21369288,2415.85 -0.05148330,43.21363526,2429.08 -0.05153274,43.21357806,2441.82 -0.05159403,43.21350717,2457.08 -0.05164267,43.21345089,2468.74 -0.05169098,43.21339500,2479.94 -0.05173897,43.21333950,2490.68 -0.05178664,43.21328434,2500.95 -0.05184582,43.21321588,2513.16 -0.05189284,43.21316149,2522.43 -0.05193960,43.21310740,2531.25 -0.05198608,43.21305362,2539.64 -0.05204383,43.21298682,2549.51 -0.05208976,43.21293369,2556.93 -0.05213545,43.21288083,2563.91 -0.05218091,43.21282824,2570.48 -0.05222616,43.21277589,2576.63 -0.05228242,43.21271081,2583.73 -0.05232719,43.21265902,2588.95 -0.05237178,43.21260744,2593.75 -0.05241617,43.21255609,2598.15 -0.05246038,43.21250495,2602.14 -0.05251538,43.21244132,2606.57 -0.05255919,43.21239063,2609.66 -0.05260284,43.21234014,2612.36 -0.05264631,43.21228985,2614.66 -0.05270045,43.21222722,2616.98 -0.05274358,43.21217733,2618.40 -0.05278657,43.21212760,2619.42 -0.05282941,43.21207804,2620.06 -0.05288277,43.21201631,2620.31 -0.05294284,43.21194682,2619.86 -0.05301032,43.21186876,2618.27 -0.05307894,43.21178937,2615.28 -0.05314808,43.21170938,2610.57 -0.05321729,43.21162932,2603.79 -0.05330372,43.21152934,2591.67 -0.05337307,43.21144911,2578.12 -0.05344322,43.21136797,2559.67 -0.05351499,43.21128493,2533.60 -0.05360852,43.21117674,2479.99 -0.05367139,43.21110401,2414.16 -0.05370579,43.21106422,2346.60 -0.05372434,43.21104275,2278.66 -0.05373429,43.21103124,2210.76 -0.05374050,43.21102406,2126.14 -0.05374293,43.21102125,2058.69 -0.05374422,43.21101976,1991.46 -0.05374490,43.21101897,1924.44 -0.05374526,43.21101855,1857.65 -0.05374548,43.21101830,1774.47 -0.05374557,43.21101820,1708.18 -0.05374561,43.21101815,1642.11 -0.05374564,43.21101812,1576.25 -0.05374565,43.21101810,1494.23 -0.05374565,43.21101810,1428.85 -0.05374566,43.21101809,1363.67 -0.05374566,43.21101809,1298.71 -0.05374566,43.21101809,1233.95 -0.05374566,43.21101809,1153.30 -0.05374566,43.21101809,1089.00 -0.05374566,43.21101809,1024.91 -0.05374566,43.21101809,961.01 -0.05374566,43.21101809,897.31 -0.05374565,43.21101810,817.96 -0.05374565,43.21101810,754.70 -0.05374565,43.21101810,691.64 -0.05374565,43.21101810,628.77 -0.05374565,43.21101810,550.46 -0.05374565,43.21101810,488.01 -0.05374565,43.21101810,428.96</coordinates></LineString></Placemark>
<Placemark><name>beta 80 nominal — quadrillage_45</name><description>Motif : quadrillage_45 (45°, 135°)&lt;br/&gt;Pas : 150 m&lt;br/&gt;Segments : 25</description><styleUrl>#s_v0_1_m</styleUrl><MultiGeometry><LineString><altitudeMode>absolute</altitudeMode><coordinates>-0.05291463,43.21197945,398.96 -0.05374566,43.21101809,555.30</coordinates></LineString><LineString><altitudeMode>absolute</altitudeMode><coordinates>-0.05151930,43.21359361,398.96 -0.05374566,43.21101809,767.43</coordinates></LineString><LineString><altitudeMode>absolute</altitudeMode><coordinates>-0.05012397,43.21520778,398.96 -0.05374566,43.21101809,979.56</coordinates></LineString><LineString><altitudeMode>absolute</altitudeMode><coordinates>-0.04872863,43.21682194,398.96 -0.05374566,43.21101809,1191.70</coordinates></LineString><LineString><altitudeMode>absolute</altitudeMode><coordinates>-0.04733330,43.21843610,398.96 -0.05374566,43.21101810,1403.83</coordinates></LineString><LineString><altitudeMode>absolute</altitudeMode><coordinates>-0.04772091,43.21798770,700.02 -0.05374562,43.21101814,1615.96</coordinates></LineString><LineString><altitudeMode>absolute</altitudeMode><coordinates>-0.04818619,43.21744945,982.89 -0.05374534,43.21101846,1828.04</coordinates></LineString><LineString><altitudeMode>absolute</altitudeMode><coordinates>-0.04873360,43.21681619,1278.24 -0.05374329,43.21102083,2039.86</coordinates></LineString><LineString><altitudeMode>absolute</altitudeMode><coordinates>-0.04933283,43.21612299,1581.48 -0.05372858,43.21103785,2249.76</coordinates></LineString><LineString><altitudeMode>absolute</altitudeMode><coordinates>-0.05000514,43.21534524,1895.82 -0.05363883,43.21114167,2448.25</coordinates></LineString><LineString><altitudeMode>absolute</altitudeMode><coordinates>-0.05086395,43.21435174,2238.52 -0.05324293,43.21159966,2600.19</coordinates></LineString><LineString><altitudeMode>absolute</altitudeMode><coordinates>-0.05364785,43.21113124,2438.81 -0.05253517,43.21241842,2607.97</coordinates></LineString><LineString><altitudeMode>absolute</altitudeMode><coordinates>-0.05373388,43.21103172,2213.60 -0.05181087,43.21325631,2505.95</coordinates></LineString><LineString><altitudeMode>absolute</altitudeMode><coordinates>-0.05374406,43.21101995,1999.92 -0.05128430,43.21386547,2373.88</coordinates></LineString><LineString><altitudeMode>absolute</altitudeMode><coordinates>-0.05374545,43.21101834,1787.58 -0.05083839,43.21438131,2229.53</coordinates></LineString><LineString><altitudeMode>absolute</altitudeMode><coordinates>-0.05374564,43.21101812,1575.41 -0.05043784,43.21484468,2078.30</coordinates></LineString><LineString><altitudeMode>absolute</altitudeMode><coordinates>-0.05374566,43.21101809,1363.28 -0.05006624,43.21527455,1922.66</coordinates></LineString><LineString><altitudeMode>absolute</altitudeMode><coordinates>-0.05374566,43.21101809,1151.15 -0.04971459,43.21568136,1763.99</coordinates></LineString><LineString><altitudeMode>absolute</altitudeMode><coordinates>-0.05374566,43.21101809,939.02 -0.04937715,43.21607172,1603.16</coordinates></LineString><LineString><altitudeMode>absolute</altitudeMode><coordinates>-0.05374566,43.21101809,726.88 -0.04905021,43.21644993,1440.73</coordinates></LineString><LineString><altitudeMode>absolute</altitudeMode><coordinates>-0.05374566,43.21101809,514.75 -0.04873135,43.21681879,1277.07</coordinates></LineString><LineString><altitudeMode>absolute</altitudeMode><coordinates>-0.05291463,43.21197945,398.96 -0.04842019,43.21717875,1112.25</coordinates></LineString><LineString><altitudeMode>absolute</altitudeMode><coordinates>-0.05151930,43.21359361,398.96 -0.04812136,43.21752445,945.55</coordinates></LineString><LineString><altitudeMode>absolute</altitudeMode><coordinates>-0.05012396,43.21520778,398.96 -0.04784074,43.21784908,776.08</coordinates></LineString><LineString><altitudeMode>absolute</altitudeMode><coordinates>-0.04872863,43.21682194,398.96 -0.04757536,43.21815608,604.29</coordinates></LineString></MultiGeometry></Placemark>
<Placemark><name>beta 80 nominal — trace au sol</name><description>Projection au sol</description><styleUrl>#s_v0_1</styleUrl><LineString><tessellate>1</tessellate><altitudeMode>clampToGround</altitudeMode><coordinates>-0.04733330,43.21843610,428.96 -0.04733332,43.21843608,428.96 -0.04733343,43.21843595,428.96 -0.04733375,43.21843558,428.96 -0.04733413,43.21843514,428.96 -0.04733467,43.21843451,428.96 -0.04733536,43.21843372,428.96 -0.04733640,43.21843251,428.96 -0.04733740,43.21843136,428.96 -0.04733867,43.21842988,428.96 -0.04734322,43.21842463,428.96 -0.04735173,43.21841478,428.96 -0.04736902,43.21839478,428.96 -0.04738453,43.21837683,428.96 -0.04740600,43.21835200,428.96 -0.04743125,43.21832278,428.96 -0.04743734,43.21831574,428.96 -0.04746982,43.21827817,428.96 -0.04750305,43.21823973,428.96 -0.04753792,43.21819939,428.96 -0.04757724,43.21815390,428.96 -0.04763041,43.21809239,428.96 -0.04767594,43.21803972,428.96 -0.04772395,43.21798419,428.96 -0.04777392,43.21792637,428.96 -0.04782471,43.21786762,428.96 -0.04788818,43.21779419,428.96 -0.04793845,43.21773604,428.96 -0.04798805,43.21767866,428.96 -0.04803700,43.21762203,428.96 -0.04808530,43.21756616,428.96 -0.04814467,43.21749749,428.96 -0.04819134,43.21744349,428.96 -0.04823987,43.21738736,428.96 -0.04829404,43.21732469,428.96 -0.04837000,43.21723682,428.96 -0.04843731,43.21715894,428.96 -0.04851011,43.21707473,428.96 -0.04858798,43.21698465,428.96 -0.04867049,43.21688920,428.96 -0.04877940,43.21676321,428.96 -0.04887032,43.21665803,428.96 -0.04896203,43.21655193,428.96 -0.04903440,43.21646821,428.96 -0.04908825,43.21640592,428.96 -0.04919640,43.21628081,428.96 -0.04928031,43.21618374,428.96 -0.04936209,43.21608913,428.96 -0.04944188,43.21599683,428.96 -0.04953902,43.21588446,428.96 -0.04961479,43.21579681,428.96 -0.04968894,43.21571102,428.96 -0.04976159,43.21562698,428.96 -0.04983280,43.21554460,428.96 -0.04991993,43.21544381,428.96 -0.04998822,43.21536482,428.96 -0.05005530,43.21528721,428.96 -0.05012126,43.21521090,428.96 -0.05018614,43.21513585,428.96 -0.05026582,43.21504367,428.96 -0.05032847,43.21497120,428.96 -0.05039021,43.21489978,428.96 -0.05045107,43.21482937,428.96 -0.05052599,43.21474271,428.96 -0.05058503,43.21467441,428.96 -0.05064332,43.21460697,428.96 -0.05070089,43.21454038,428.96 -0.05075777,43.21447457,428.96 -0.05082794,43.21439340,428.96 -0.05088338,43.21432927,428.96 -0.05093821,43.21426583,428.96 -0.05099247,43.21420306,428.96 -0.05104618,43.21414093,428.96 -0.05111257,43.21406412,428.96 -0.05116512,43.21400333,428.96 -0.05121719,43.21394311,428.96 -0.05126878,43.21388342,428.96 -0.05133266,43.21380953,428.96 -0.05138327,43.21375097,428.96 -0.05143349,43.21369288,428.96 -0.05148330,43.21363526,428.96 -0.05153274,43.21357806,428.96 -0.05159403,43.21350717,428.96 -0.05164267,43.21345089,428.96 -0.05169098,43.21339500,428.96 -0.05173897,43.21333950,428.96 -0.05178664,43.21328434,428.96 -0.05184582,43.21321588,428.96 -0.05189284,43.21316149,428.96 -0.05193960,43.21310740,428.96 -0.05198608,43.21305362,428.96 -0.05204383,43.21298682,428.96 -0.05208976,43.21293369,428.96 -0.05213545,43.21288083,428.96 -0.05218091,43.21282824,428.96 -0.05222616,43.21277589,428.96 -0.05228242,43.21271081,428.96 -0.05232719,43.21265902,428.96 -0.05237178,43.21260744,428.96 -0.05241617,43.21255609,428.96 -0.05246038,43.21250495,428.96 -0.05251538,43.21244132,428.96 -0.05255919,43.21239063,428.96 -0.05260284,43.21234014,428.96 -0.05264631,43.21228985,428.96 -0.05270045,43.21222722,428.96 -0.05274358,43.21217733,428.96 -0.05278657,43.21212760,428.96 -0.05282941,43.21207804,428.96 -0.05288277,43.21201631,428.96 -0.05294284,43.21194682,428.96 -0.05301032,43.21186876,428.96 -0.05307894,43.21178937,428.96 -0.05314808,43.21170938,428.96 -0.05321729,43.21162932,428.96 -0.05330372,43.21152934,428.96 -0.05337307,43.21144911,428.96 -0.05344322,43.21136797,428.96 -0.05351499,43.21128493,428.96 -0.05360852,43.21117674,428.96 -0.05367139,43.21110401,428.96 -0.05370579,43.21106422,428.96 -0.05372434,43.21104275,428.96 -0.05373429,43.21103124,428.96 -0.05374050,43.21102406,428.96 -0.05374293,43.21102125,428.96 -0.05374422,43.21101976,428.96 -0.05374490,43.21101897,428.96 -0.05374526,43.21101855,428.96 -0.05374548,43.21101830,428.96 -0.05374557,43.21101820,428.96 -0.05374561,43.21101815,428.96 -0.05374564,43.21101812,428.96 -0.05374565,43.21101810,428.96 -0.05374565,43.21101810,428.96 -0.05374566,43.21101809,428.96 -0.05374566,43.21101809,428.96 -0.05374566,43.21101809,428.96 -0.05374566,43.21101809,428.96 -0.05374566,43.21101809,428.96 -0.05374566,43.21101809,428.96 -0.05374566,43.21101809,428.96 -0.05374566,43.21101809,428.96 -0.05374565,43.21101810,428.96 -0.05374565,43.21101810,428.96 -0.05374565,43.21101810,428.96 -0.05374565,43.21101810,428.96 -0.05374565,43.21101810,428.96 -0.05374565,43.21101810,428.96 -0.05374565,43.21101810,428.96</coordinates></LineString></Placemark>
<Placemark><name>alpha 45 nominal</name><description>Groupe : SP02 J285&lt;br/&gt;Fichier : alpha_45.csv&lt;br/&gt;Pas de tir : Rampe FusEx&lt;br/&gt;Azimut : 212.2°&lt;br/&gt;Apogée : 472 m&lt;br/&gt;Portée : 1573 m&lt;br/&gt;Points : 150 / 457&lt;br/&gt;Rideau : quadrillage_45</description><styleUrl>#s_v0_2</styleUrl><LineString><extrude>0</extrude><altitudeMode>absolute</altitudeMode><coordinates>-0.04733330,43.21843610,428.96 -0.04733333,43.21843606,428.96 -0.04733358,43.21843577,428.99 -0.04733400,43.21843529,429.04 -0.04733483,43.21843433,429.15 -0.04733598,43.21843300,429.31 -0.04733732,43.21843145,429.50 -0.04733909,43.21842940,429.76 -0.04734119,43.21842697,430.06 -0.04734451,43.21842313,430.54 -0.04734738,43.21841982,430.97 -0.04735057,43.21841613,431.44 -0.04735470,43.21841135,432.04 -0.04737012,43.21839350,434.27 -0.04739308,43.21836695,437.49 -0.04742892,43.21832548,442.42 -0.04747308,43.21827440,448.35 -0.04750967,43.21823207,453.14 -0.04752789,43.21821099,455.49 -0.04758274,43.21814753,462.37 -0.04765176,43.21806769,470.73 -0.04772875,43.21797863,479.82 -0.04777120,43.21792952,484.77 -0.04785949,43.21782739,494.91 -0.04795512,43.21771676,505.62 -0.04808565,43.21756576,519.91 -0.04819649,43.21743754,531.81 -0.04831361,43.21730205,544.14 -0.04843662,43.21715974,556.87 -0.04856520,43.21701100,569.95 -0.04869907,43.21685613,583.34 -0.04883789,43.21669555,597.01 -0.04898117,43.21652980,610.88 -0.04912707,43.21636102,624.80 -0.04927391,43.21619115,638.57 -0.04942055,43.21602151,652.12 -0.04956633,43.21585286,665.36 -0.04971073,43.21568582,678.26 -0.04985355,43.21552060,690.79 -0.04999479,43.21535721,702.97 -0.05013448,43.21519561,714.80 -0.05027257,43.21503587,726.28 -0.05045191,43.21482839,740.84 -0.05058263,43.21467718,751.20 -0.05071030,43.21452949,761.10 -0.05083508,43.21438514,770.57 -0.05095711,43.21424397,779.60 -0.05107654,43.21410581,788.22 -0.05119349,43.21397051,796.45 -0.05130808,43.21383795,804.30 -0.05142043,43.21370799,811.77 -0.05153062,43.21358051,818.88 -0.05163877,43.21345541,825.64 -0.05174494,43.21333258,832.06 -0.05184923,43.21321193,838.15 -0.05195172,43.21309337,843.91 -0.05205248,43.21297682,849.36 -0.05215156,43.21286219,854.50 -0.05228119,43.21271223,860.89 -0.05237663,43.21260183,865.34 -0.05247061,43.21249311,869.50 -0.05256316,43.21238604,873.38 -0.05265435,43.21228056,876.98 -0.05274422,43.21217659,880.31 -0.05283280,43.21207411,883.38 -0.05292016,43.21197306,886.19 -0.05300632,43.21187339,888.74 -0.05309131,43.21177506,891.03 -0.05317518,43.21167803,893.08 -0.05325796,43.21158228,894.89 -0.05333968,43.21148774,896.45 -0.05342037,43.21139440,897.77 -0.05350005,43.21130222,898.86 -0.05357876,43.21121117,899.72 -0.05365652,43.21112121,900.34 -0.05375875,43.21100294,900.83 -0.05383439,43.21091544,900.93 -0.05390915,43.21082897,900.82 -0.05398305,43.21074348,900.49 -0.05405611,43.21065895,899.94 -0.05412835,43.21057538,899.18 -0.05419980,43.21049273,898.21 -0.05427046,43.21041099,897.03 -0.05434035,43.21033013,895.65 -0.05440949,43.21025015,894.06 -0.05447789,43.21017103,892.27 -0.05454556,43.21009274,890.29 -0.05461252,43.21001529,888.10 -0.05467877,43.20993865,885.72 -0.05474433,43.20986281,883.14 -0.05480921,43.20978775,880.38 -0.05487342,43.20971347,877.42 -0.05495801,43.20961561,873.18 -0.05502069,43.20954310,869.79 -0.05508273,43.20947133,866.21 -0.05514413,43.20940030,862.45 -0.05520491,43.20932998,858.51 -0.05526507,43.20926039,854.39 -0.05532463,43.20919150,850.09 -0.05538357,43.20912331,845.62 -0.05544191,43.20905582,840.97 -0.05549966,43.20898901,836.15 -0.05555682,43.20892288,831.16 -0.05561341,43.20885743,826.00 -0.05566941,43.20879264,820.68 -0.05572484,43.20872852,815.19 -0.05577970,43.20866505,809.54 -0.05583400,43.20860224,803.73 -0.05590553,43.20851949,795.74 -0.05595854,43.20845817,789.56 -0.05601098,43.20839750,783.22 -0.05606288,43.20833746,776.73 -0.05611424,43.20827805,770.10 -0.05616507,43.20821925,763.31 -0.05621535,43.20816108,756.37 -0.05626510,43.20810353,749.29 -0.05631432,43.20804659,742.06 -0.05636301,43.20799026,734.70 -0.05641118,43.20793453,727.19 -0.05645883,43.20787941,719.54 -0.05650596,43.20782489,711.76 -0.05655258,43.20777097,703.85 -0.05659869,43.20771763,695.80 -0.05664428,43.20766488,687.62 -0.05668937,43.20761272,679.32 -0.05674871,43.20754407,668.04 -0.05679263,43.20749327,659.45 -0.05683605,43.20744303,650.73 -0.05687898,43.20739337,641.89 -0.05692143,43.20734427,632.93 -0.05696338,43.20729574,623.86 -0.05700484,43.20724777,614.67 -0.05704583,43.20720036,605.37 -0.05708633,43.20715350,595.95 -0.05712637,43.20710719,586.43 -0.05716592,43.20706144,576.81 -0.05720501,43.20701621,567.08 -0.05724363,43.20697154,557.25 -0.05728178,43.20692740,547.31 -0.05731947,43.20688380,537.28 -0.05735671,43.20684072,527.15 -0.05740565,43.20678410,513.49 -0.05744183,43.20674225,503.14 -0.05747757,43.20670091,492.70 -0.05751286,43.20666009,482.17 -0.05754771,43.20661977,471.55 -0.05758211,43.20657997,460.85 -0.05761609,43.20654067,450.06 -0.05764963,43.20650186,439.19 -0.05768275,43.20646355,428.25</coordinates></LineString></Placemark>
<Placemark><name>alpha 45 nominal — quadrillage_45</name><description>Motif : quadrillage_45 (45°, 135°)&lt;br/&gt;Pas : 150 m&lt;br/&gt;Segments : 14</description><styleUrl>#s_v0_2_m</styleUrl><MultiGeometry><LineString><altitudeMode>absolute</altitudeMode><coordinates>-0.05710063,43.20713696,398.96 -0.05749186,43.20668438,488.44</coordinates></LineString><LineString><altitudeMode>absolute</altitudeMode><coordinates>-0.05570530,43.20875113,398.96 -0.05697309,43.20728450,621.70</coordinates></LineString><LineString><altitudeMode>absolute</altitudeMode><coordinates>-0.05430996,43.21036529,398.96 -0.05634195,43.20801462,737.88</coordinates></LineString><LineString><altitudeMode>absolute</altitudeMode><coordinates>-0.05291463,43.21197945,398.96 -0.05555892,43.20892046,830.97</coordinates></LineString><LineString><altitudeMode>absolute</altitudeMode><coordinates>-0.05151930,43.21359361,398.96 -0.05455230,43.21008495,890.07</coordinates></LineString><LineString><altitudeMode>absolute</altitudeMode><coordinates>-0.05012397,43.21520778,398.96 -0.05317708,43.21167584,893.12</coordinates></LineString><LineString><altitudeMode>absolute</altitudeMode><coordinates>-0.04872863,43.21682194,398.96 -0.05110485,43.21407306,790.22</coordinates></LineString><LineString><altitudeMode>absolute</altitudeMode><coordinates>-0.05710063,43.20713696,398.96 -0.05399992,43.21072396,900.36</coordinates></LineString><LineString><altitudeMode>absolute</altitudeMode><coordinates>-0.05570530,43.20875113,398.96 -0.05273797,43.21218381,880.08</coordinates></LineString><LineString><altitudeMode>absolute</altitudeMode><coordinates>-0.05430996,43.21036529,398.96 -0.05168310,43.21340412,828.32</coordinates></LineString><LineString><altitudeMode>absolute</altitudeMode><coordinates>-0.05291463,43.21197945,398.96 -0.05072338,43.21451436,762.10</coordinates></LineString><LineString><altitudeMode>absolute</altitudeMode><coordinates>-0.05151930,43.21359361,398.96 -0.04981773,43.21556204,687.65</coordinates></LineString><LineString><altitudeMode>absolute</altitudeMode><coordinates>-0.05012397,43.21520778,398.96 -0.04894828,43.21656784,607.70</coordinates></LineString><LineString><altitudeMode>absolute</altitudeMode><coordinates>-0.04872863,43.21682194,398.96 -0.04811186,43.21753543,522.73</coordinates></LineString></MultiGeometry></Placemark>
<Placemark><name>alpha 45 nominal — trace au sol</name><description>Projection au sol</description><styleUrl>#s_v0_2</styleUrl><LineString><tessellate>1</tessellate><altitudeMode>clampToGround</altitudeMode><coordinates>-0.04733330,43.21843610,428.96 -0.04733333,43.21843606,428.96 -0.04733358,43.21843577,428.96 -0.04733400,43.21843529,428.96 -0.04733483,43.21843433,428.96 -0.04733598,43.21843300,428.96 -0.04733732,43.21843145,428.96 -0.04733909,43.21842940,428.96 -0.04734119,43.21842697,428.96 -0.04734451,43.21842313,428.96 -0.04734738,43.21841982,428.96 -0.04735057,43.21841613,428.96 -0.04735470,43.21841135,428.96 -0.04737012,43.21839350,428.96 -0.04739308,43.21836695,428.96 -0.04742892,43.21832548,428.96 -0.04747308,43.21827440,428.96 -0.04750967,43.21823207,428.96 -0.04752789,43.21821099,428.96 -0.04758274,43.21814753,428.96 -0.04765176,43.21806769,428.96 -0.04772875,43.21797863,428.96 -0.04777120,43.21792952,428.96 -0.04785949,43.21782739,428.96 -0.04795512,43.21771676,428.96 -0.04808565,43.21756576,428.96 -0.04819649,43.21743754,428.96 -0.04831361,43.21730205,428.96 -0.04843662,43.21715974,428.96 -0.04856520,43.21701100,428.96 -0.04869907,43.21685613,428.96 -0.04883789,43.21669555,428.96 -0.04898117,43.21652980,428.96 -0.04912707,43.21636102,428.96 -0.04927391,43.21619115,428.96 -0.04942055,43.21602151,428.96 -0.04956633,43.21585286,428.96 -0.04971073,43.21568582,428.96 -0.04985355,43.21552060,428.96 -0.04999479,43.21535721,428.96 -0.05013448,43.21519561,428.96 -0.05027257,43.21503587,428.96 -0.05045191,43.21482839,428.96 -0.05058263,43.21467718,428.96 -0.05071030,43.21452949,428.96 -0.05083508,43.21438514,428.96 -0.05095711,43.21424397,428.96 -0.05107654,43.21410581,428.96 -0.05119349,43.21397051,428.96 -0.05130808,43.21383795,428.96 -0.05142043,43.21370799,428.96 -0.05153062,43.21358051,428.96 -0.05163877,43.21345541,428.96 -0.05174494,43.21333258,428.96 -0.05184923,43.21321193,428.96 -0.05195172,43.21309337,428.96 -0.05205248,43.21297682,428.96 -0.05215156,43.21286219,428.96 -0.05228119,43.21271223,428.96 -0.05237663,43.21260183,428.96 -0.05247061,43.21249311,428.96 -0.05256316,43.21238604,428.96 -0.05265435,43.21228056,428.96 -0.05274422,43.21217659,428.96 -0.05283280,43.21207411,428.96 -0.05292016,43.21197306,428.96 -0.05300632,43.21187339,428.96 -0.05309131,43.21177506,428.96 -0.05317518,43.21167803,428.96 -0.05325796,43.21158228,428.96 -0.05333968,43.21148774,428.96 -0.05342037,43.21139440,428.96 -0.05350005,43.21130222,428.96 -0.05357876,43.21121117,428.96 -0.05365652,43.21112121,428.96 -0.05375875,43.21100294,428.96 -0.05383439,43.21091544,428.96 -0.05390915,43.21082897,428.96 -0.05398305,43.21074348,428.96 -0.05405611,43.21065895,428.96 -0.05412835,43.21057538,428.96 -0.05419980,43.21049273,428.96 -0.05427046,43.21041099,428.96 -0.05434035,43.21033013,428.96 -0.05440949,43.21025015,428.96 -0.05447789,43.21017103,428.96 -0.05454556,43.21009274,428.96 -0.05461252,43.21001529,428.96 -0.05467877,43.20993865,428.96 -0.05474433,43.20986281,428.96 -0.05480921,43.20978775,428.96 -0.05487342,43.20971347,428.96 -0.05495801,43.20961561,428.96 -0.05502069,43.20954310,428.96 -0.05508273,43.20947133,428.96 -0.05514413,43.20940030,428.96 -0.05520491,43.20932998,428.96 -0.05526507,43.20926039,428.96 -0.05532463,43.20919150,428.96 -0.05538357,43.20912331,428.96 -0.05544191,43.20905582,428.96 -0.05549966,43.20898901,428.96 -0.05555682,43.20892288,428.96 -0.05561341,43.20885743,428.96 -0.05566941,43.20879264,428.96 -0.05572484,43.20872852,428.96 -0.05577970,43.20866505,428.96 -0.05583400,43.20860224,428.96 -0.05590553,43.20851949,428.96 -0.05595854,43.20845817,428.96 -0.05601098,43.20839750,428.96 -0.05606288,43.20833746,428.96 -0.05611424,43.20827805,428.96 -0.05616507,43.20821925,428.96 -0.05621535,43.20816108,428.96 -0.05626510,43.20810353,428.96 -0.05631432,43.20804659,428.96 -0.05636301,43.20799026,428.96 -0.05641118,43.20793453,428.96 -0.05645883,43.20787941,428.96 -0.05650596,43.20782489,428.96 -0.05655258,43.20777097,428.96 -0.05659869,43.20771763,428.96 -0.05664428,43.20766488,428.96 -0.05668937,43.20761272,428.96 -0.05674871,43.20754407,428.96 -0.05679263,43.20749327,428.96 -0.05683605,43.20744303,428.96 -0.05687898,43.20739337,428.96 -0.05692143,43.20734427,428.96 -0.05696338,43.20729574,428.96 -0.05700484,43.20724777,428.96 -0.05704583,43.20720036,428.96 -0.05708633,43.20715350,428.96 -0.05712637,43.20710719,428.96 -0.05716592,43.20706144,428.96 -0.05720501,43.20701621,428.96 -0.05724363,43.20697154,428.96 -0.05728178,43.20692740,428.96 -0.05731947,43.20688380,428.96 -0.05735671,43.20684072,428.96 -0.05740565,43.20678410,428.96 -0.05744183,43.20674225,428.96 -0.05747757,43.20670091,428.96 -0.05751286,43.20666009,428.96 -0.05754771,43.20661977,428.96 -0.05758211,43.20657997,428.96 -0.05761609,43.20654067,428.96 -0.05764963,43.20650186,428.96 -0.05768275,43.20646355,428.96</coordinates></LineString></Placemark>
<Placemark><name>beta 45 nominal</name><description>Groupe : SP02 J285&lt;br/&gt;Fichier : beta_45.csv&lt;br/&gt;Pas de tir : Rampe FusEx&lt;br/&gt;Azimut : 212.2°&lt;br/&gt;Apogée : 779 m&lt;br/&gt;Portée : 3169 m&lt;br/&gt;Points : 150 / 599&lt;br/&gt;Rideau : quadrillage_45</description><styleUrl>#s_v0_3</styleUrl><LineString><extrude>0</extrude><altitudeMode>absolute</altitudeMode><coordinates>-0.04733330,43.21843610,428.96 -0.04733338,43.21843601,428.97 -0.04733384,43.21843548,429.02 -0.04733483,43.21843433,429.15 -0.04733631,43.21843261,429.36 -0.04733846,43.21843013,429.67 -0.04734119,43.21842697,430.06 -0.04734451,43.21842313,430.54 -0.04734840,43.21841863,431.12 -0.04735288,43.21841345,431.78 -0.04737012,43.21839350,434.27 -0.04740410,43.21835419,439.02 -0.04745743,43.21829251,446.26 -0.04750967,43.21823207,453.14 -0.04754139,43.21819537,457.20 -0.04762785,43.21809536,467.86 -0.04772875,43.21797863,479.82 -0.04779981,43.21789643,488.08 -0.04792244,43.21775456,501.99 -0.04805013,43.21760685,516.05 -0.04819649,43.21743754,531.81 -0.04835398,43.21725534,548.34 -0.04852173,43.21706129,565.56 -0.04869907,43.21685613,583.34 -0.04888521,43.21664080,601.62 -0.04907826,43.21641748,620.17 -0.04927391,43.21619115,638.57 -0.04946926,43.21596515,656.57 -0.04966277,43.21574130,674.00 -0.04985355,43.21552060,690.79 -0.05004152,43.21530315,706.96 -0.05022678,43.21508884,722.50 -0.05040907,43.21487795,737.40 -0.05058820,43.21467074,751.65 -0.05076604,43.21446500,765.42 -0.05095853,43.21424232,779.90 -0.05117001,43.21399768,795.40 -0.05140051,43.21373103,811.88 -0.05171423,43.21336811,833.75 -0.05198382,43.21305624,852.08 -0.05226818,43.21272728,871.01 -0.05256558,43.21238324,890.41 -0.05287414,43.21202629,910.15 -0.05319043,43.21166040,929.98 -0.05350504,43.21129645,949.32 -0.05369808,43.21107313,960.98 -0.05393412,43.21080008,975.04 -0.05422775,43.21046040,992.18 -0.05451252,43.21013096,1008.42 -0.05478905,43.20981106,1023.80 -0.05505792,43.20950004,1038.37 -0.05531959,43.20919732,1052.16 -0.05557454,43.20890238,1065.21 -0.05582315,43.20861478,1077.56 -0.05606580,43.20833409,1089.21 -0.05630280,43.20805992,1100.22 -0.05653446,43.20779193,1110.58 -0.05676105,43.20752980,1120.33 -0.05698283,43.20727324,1129.49 -0.05720003,43.20702197,1138.07 -0.05741286,43.20677576,1146.10 -0.05762153,43.20653437,1153.57 -0.05782622,43.20629758,1160.52 -0.05802710,43.20606520,1166.95 -0.05822433,43.20583703,1172.88 -0.05841806,43.20561293,1178.31 -0.05860841,43.20539272,1183.26 -0.05879554,43.20517624,1187.74 -0.05897955,43.20496337,1191.75 -0.05916057,43.20475397,1195.31 -0.05933869,43.20454791,1198.43 -0.05951403,43.20434508,1201.11 -0.05968666,43.20414536,1203.36 -0.05985669,43.20394867,1205.19 -0.06002420,43.20375490,1206.60 -0.06018925,43.20356395,1207.61 -0.06035195,43.20337574,1208.21 -0.06051234,43.20319020,1208.41 -0.06067050,43.20300724,1208.23 -0.06082649,43.20282678,1207.66 -0.06098036,43.20264877,1206.70 -0.06113219,43.20247314,1205.38 -0.06128202,43.20229981,1203.68 -0.06142989,43.20212875,1201.61 -0.06157587,43.20195988,1199.18 -0.06171998,43.20179316,1196.39 -0.06186229,43.20162853,1193.25 -0.06200283,43.20146595,1189.77 -0.06214163,43.20130538,1185.93 -0.06227873,43.20114678,1181.75 -0.06241419,43.20099008,1177.24 -0.06254800,43.20083528,1172.39 -0.06268023,43.20068232,1167.21 -0.06281089,43.20053116,1161.70 -0.06294001,43.20038179,1155.87 -0.06306763,43.20023416,1149.72 -0.06319376,43.20008825,1143.25 -0.06331843,43.19994402,1136.46 -0.06344167,43.19980146,1129.37 -0.06356350,43.19966052,1121.96 -0.06368394,43.19952119,1114.25 -0.06380300,43.19938346,1106.25 -0.06392072,43.19924728,1097.94 -0.06403710,43.19911265,1089.34 -0.06415216,43.19897955,1080.44 -0.06426593,43.19884794,1071.26 -0.06437842,43.19871780,1061.79 -0.06448963,43.19858915,1052.04 -0.06459960,43.19846194,1042.01 -0.06470833,43.19833615,1031.71 -0.06481584,43.19821178,1021.13 -0.06492213,43.19808882,1010.28 -0.06505332,43.19793706,996.34 -0.06515693,43.19781720,984.89 -0.06525937,43.19769869,973.19 -0.06536065,43.19758152,961.23 -0.06546078,43.19746569,949.01 -0.06555977,43.19735118,936.54 -0.06565763,43.19723797,923.83 -0.06575437,43.19712606,910.88 -0.06585000,43.19701543,897.68 -0.06594453,43.19690608,884.24 -0.06603796,43.19679799,870.57 -0.06613031,43.19669116,856.67 -0.06622158,43.19658557,842.54 -0.06631180,43.19648121,828.19 -0.06640094,43.19637809,813.62 -0.06648904,43.19627617,798.83 -0.06657610,43.19617546,783.83 -0.06666212,43.19607595,768.61 -0.06674712,43.19597762,753.18 -0.06683110,43.19588047,737.56 -0.06691406,43.19578450,721.73 -0.06699602,43.19568969,705.70 -0.06707698,43.19559602,689.48 -0.06715696,43.19550350,673.07 -0.06723595,43.19541212,656.47 -0.06731397,43.19532187,639.68 -0.06739102,43.19523274,622.71 -0.06746711,43.19514471,605.57 -0.06754225,43.19505778,588.25 -0.06761645,43.19497195,570.76 -0.06768970,43.19488721,553.10 -0.06776203,43.19480354,535.28 -0.06783343,43.19472094,517.29 -0.06790392,43.19463940,499.15 -0.06797350,43.19455891,480.85 -0.06804217,43.19447946,462.40 -0.06810996,43.19440105,443.80 -0.06817685,43.19432366,425.05</coordinates></LineString></Placemark>
<Placemark><name>beta 45 nominal — quadrillage_45</name><description>Motif : quadrillage_45 (45°, 135°)&lt;br/&gt;Pas : 150 m&lt;br/&gt;Segments : 29</description><styleUrl>#s_v0_3_m</styleUrl><MultiGeometry><LineString><altitudeMode>absolute</altitudeMode><coordinates>-0.06686796,43.19583783,398.96 -0.06768770,43.19488952,553.59</coordinates></LineString><LineString><altitudeMode>absolute</altitudeMode><coordinates>-0.06547263,43.19745199,398.96 -0.06712348,43.19554224,679.94</coordinates></LineString><LineString><altitudeMode>absolute</altitudeMode><coordinates>-0.06407729,43.19906615,398.96 -0.06649895,43.19626471,797.12</coordinates></LineString><LineString><altitudeMode>absolute</altitudeMode><coordinates>-0.06268196,43.20068031,398.96 -0.06580546,43.19706696,903.82</coordinates></LineString><LineString><altitudeMode>absolute</altitudeMode><coordinates>-0.06128663,43.20229448,398.96 -0.06503292,43.19796066,998.51</coordinates></LineString><LineString><altitudeMode>absolute</altitudeMode><coordinates>-0.05989130,43.20390864,398.96 -0.06416808,43.19896113,1079.16</coordinates></LineString><LineString><altitudeMode>absolute</altitudeMode><coordinates>-0.05849596,43.20552280,398.96 -0.06319415,43.20008779,1143.22</coordinates></LineString><LineString><altitudeMode>absolute</altitudeMode><coordinates>-0.05710063,43.20713696,398.96 -0.06208925,43.20136598,1187.38</coordinates></LineString><LineString><altitudeMode>absolute</altitudeMode><coordinates>-0.05570530,43.20875113,398.96 -0.06082727,43.20282587,1207.65</coordinates></LineString><LineString><altitudeMode>absolute</altitudeMode><coordinates>-0.05430996,43.21036529,398.96 -0.05937493,43.20450599,1198.98</coordinates></LineString><LineString><altitudeMode>absolute</altitudeMode><coordinates>-0.05291463,43.21197945,398.96 -0.05769795,43.20644597,1156.17</coordinates></LineString><LineString><altitudeMode>absolute</altitudeMode><coordinates>-0.05151930,43.21359361,398.96 -0.05576732,43.20867938,1074.78</coordinates></LineString><LineString><altitudeMode>absolute</altitudeMode><coordinates>-0.05012397,43.21520778,398.96 -0.05357417,43.21121648,953.49</coordinates></LineString><LineString><altitudeMode>absolute</altitudeMode><coordinates>-0.04872863,43.21682194,398.96 -0.05111003,43.21406707,791.00</coordinates></LineString><LineString><altitudeMode>absolute</altitudeMode><coordinates>-0.06804066,43.19448121,462.81 -0.06381294,43.19937196,1105.55</coordinates></LineString><LineString><altitudeMode>absolute</altitudeMode><coordinates>-0.06686796,43.19583783,398.96 -0.06183702,43.20165777,1193.81</coordinates></LineString><LineString><altitudeMode>absolute</altitudeMode><coordinates>-0.06547263,43.19745199,398.96 -0.06034710,43.20338135,1208.19</coordinates></LineString><LineString><altitudeMode>absolute</altitudeMode><coordinates>-0.06407729,43.19906615,398.96 -0.05905070,43.20488106,1193.15</coordinates></LineString><LineString><altitudeMode>absolute</altitudeMode><coordinates>-0.06268196,43.20068031,398.96 -0.05786239,43.20625573,1161.68</coordinates></LineString><LineString><altitudeMode>absolute</altitudeMode><coordinates>-0.06128663,43.20229448,398.96 -0.05674387,43.20754968,1119.59</coordinates></LineString><LineString><altitudeMode>absolute</altitudeMode><coordinates>-0.05989129,43.20390864,398.96 -0.05567381,43.20878755,1070.14</coordinates></LineString><LineString><altitudeMode>absolute</altitudeMode><coordinates>-0.05849596,43.20552280,398.96 -0.05463843,43.20998531,1015.42</coordinates></LineString><LineString><altitudeMode>absolute</altitudeMode><coordinates>-0.05710063,43.20713696,398.96 -0.05362874,43.21115335,956.79</coordinates></LineString><LineString><altitudeMode>absolute</altitudeMode><coordinates>-0.05570530,43.20875113,398.96 -0.05263908,43.21229821,895.12</coordinates></LineString><LineString><altitudeMode>absolute</altitudeMode><coordinates>-0.05430996,43.21036529,398.96 -0.05166842,43.21342111,830.55</coordinates></LineString><LineString><altitudeMode>absolute</altitudeMode><coordinates>-0.05291463,43.21197945,398.96 -0.05072329,43.21451446,762.11</coordinates></LineString><LineString><altitudeMode>absolute</altitudeMode><coordinates>-0.05151930,43.21359361,398.96 -0.04981777,43.21556199,687.64</coordinates></LineString><LineString><altitudeMode>absolute</altitudeMode><coordinates>-0.05012396,43.21520778,398.96 -0.04894837,43.21656774,607.69</coordinates></LineString><LineString><altitudeMode>absolute</altitudeMode><coordinates>-0.04872863,43.21682194,398.96 -0.04811196,43.21753532,522.71</coordinates></LineString></MultiGeometry></Placemark>
<Placemark><name>beta 45 nominal — trace au sol</name><description>Projection au sol</description><styleUrl>#s_v0_3</styleUrl><LineString><tessellate>1</tessellate><altitudeMode>clampToGround</altitudeMode><coordinates>-0.04733330,43.21843610,428.96 -0.04733338,43.21843601,428.96 -0.04733384,43.21843548,428.96 -0.04733483,43.21843433,428.96 -0.04733631,43.21843261,428.96 -0.04733846,43.21843013,428.96 -0.04734119,43.21842697,428.96 -0.04734451,43.21842313,428.96 -0.04734840,43.21841863,428.96 -0.04735288,43.21841345,428.96 -0.04737012,43.21839350,428.96 -0.04740410,43.21835419,428.96 -0.04745743,43.21829251,428.96 -0.04750967,43.21823207,428.96 -0.04754139,43.21819537,428.96 -0.04762785,43.21809536,428.96 -0.04772875,43.21797863,428.96 -0.04779981,43.21789643,428.96 -0.04792244,43.21775456,428.96 -0.04805013,43.21760685,428.96 -0.04819649,43.21743754,428.96 -0.04835398,43.21725534,428.96 -0.04852173,43.21706129,428.96 -0.04869907,43.21685613,428.96 -0.04888521,43.21664080,428.96 -0.04907826,43.21641748,428.96 -0.04927391,43.21619115,428.96 -0.04946926,43.21596515,428.96 -0.04966277,43.21574130,428.96 -0.04985355,43.21552060,428.96 -0.05004152,43.21530315,428.96 -0.05022678,43.21508884,428.96 -0.05040907,43.21487795,428.96 -0.05058820,43.21467074,428.96 -0.05076604,43.21446500,428.96 -0.05095853,43.21424232,428.96 -0.05117001,43.21399768,428.96 -0.05140051,43.21373103,428.96 -0.05171423,43.21336811,428.96 -0.05198382,43.21305624,428.96 -0.05226818,43.21272728,428.96 -0.05256558,43.21238324,428.96 -0.05287414,43.21202629,428.96 -0.05319043,43.21166040,428.96 -0.05350504,43.21129645,428.96 -0.05369808,43.21107313,428.96 -0.05393412,43.21080008,428.96 -0.05422775,43.21046040,428.96 -0.05451252,43.21013096,428.96 -0.05478905,43.20981106,428.96 -0.05505792,43.20950004,428.96 -0.05531959,43.20919732,428.96 -0.05557454,43.20890238,428.96 -0.05582315,43.20861478,428.96 -0.05606580,43.20833409,428.96 -0.05630280,43.20805992,428.96 -0.05653446,43.20779193,428.96 -0.05676105,43.20752980,428.96 -0.05698283,43.20727324,428.96 -0.05720003,43.20702197,428.96 -0.05741286,43.20677576,428.96 -0.05762153,43.20653437,428.96 -0.05782622,43.20629758,428.96 -0.05802710,43.20606520,428.96 -0.05822433,43.20583703,428.96 -0.05841806,43.20561293,428.96 -0.05860841,43.20539272,428.96 -0.05879554,43.20517624,428.96 -0.05897955,43.20496337,428.96 -0.05916057,43.20475397,428.96 -0.05933869,43.20454791,428.96 -0.05951403,43.20434508,428.96 -0.05968666,43.20414536,428.96 -0.05985669,43.20394867,428.96 -0.06002420,43.20375490,428.96 -0.06018925,43.20356395,428.96 -0.06035195,43.20337574,428.96 -0.06051234,43.20319020,428.96 -0.06067050,43.20300724,428.96 -0.06082649,43.20282678,428.96 -0.06098036,43.20264877,428.96 -0.06113219,43.20247314,428.96 -0.06128202,43.20229981,428.96 -0.06142989,43.20212875,428.96 -0.06157587,43.20195988,428.96 -0.06171998,43.20179316,428.96 -0.06186229,43.20162853,428.96 -0.06200283,43.20146595,428.96 -0.06214163,43.20130538,428.96 -0.06227873,43.20114678,428.96 -0.06241419,43.20099008,428.96 -0.06254800,43.20083528,428.96 -0.06268023,43.20068232,428.96 -0.06281089,43.20053116,428.96 -0.06294001,43.20038179,428.96 -0.06306763,43.20023416,428.96 -0.06319376,43.20008825,428.96 -0.06331843,43.19994402,428.96 -0.06344167,43.19980146,428.96 -0.06356350,43.19966052,428.96 -0.06368394,43.19952119,428.96 -0.06380300,43.19938346,428.96 -0.06392072,43.19924728,428.96 -0.06403710,43.19911265,428.96 -0.06415216,43.19897955,428.96 -0.06426593,43.19884794,428.96 -0.06437842,43.19871780,428.96 -0.06448963,43.19858915,428.96 -0.06459960,43.19846194,428.96 -0.06470833,43.19833615,428.96 -0.06481584,43.19821178,428.96 -0.06492213,43.19808882,428.96 -0.06505332,43.19793706,428.96 -0.06515693,43.19781720,428.96 -0.06525937,43.19769869,428.96 -0.06536065,43.19758152,428.96 -0.06546078,43.19746569,428.96 -0.06555977,43.19735118,428.96 -0.06565763,43.19723797,428.96 -0.06575437,43.19712606,428.96 -0.06585000,43.19701543,428.96 -0.06594453,43.19690608,428.96 -0.06603796,43.19679799,428.96 -0.06613031,43.19669116,428.96 -0.06622158,43.19658557,428.96 -0.06631180,43.19648121,428.96 -0.06640094,43.19637809,428.96 -0.06648904,43.19627617,428.96 -0.06657610,43.19617546,428.96 -0.06666212,43.19607595,428.96 -0.06674712,43.19597762,428.96 -0.06683110,43.19588047,428.96 -0.06691406,43.19578450,428.96 -0.06699602,43.19568969,428.96 -0.06707698,43.19559602,428.96 -0.06715696,43.19550350,428.96 -0.06723595,43.19541212,428.96 -0.06731397,43.19532187,428.96 -0.06739102,43.19523274,428.96 -0.06746711,43.19514471,428.96 -0.06754225,43.19505778,428.96 -0.06761645,43.19497195,428.96 -0.06768970,43.19488721,428.96 -0.06776203,43.19480354,428.96 -0.06783343,43.19472094,428.96 -0.06790392,43.19463940,428.96 -0.06797350,43.19455891,428.96 -0.06804217,43.19447946,428.96 -0.06810996,43.19440105,428.96 -0.06817685,43.19432366,428.96</coordinates></LineString></Placemark>
</Folder>
</Folder>
</Document></kml>
