<?xml version="1.0" encoding="UTF-8"?>
<kml xmlns="http://www.opengis.net/kml/2.2" xmlns:gx="http://www.google.com/kml/ext/2.2">
<Document><name>Base de lancement de Ger — zones et trajectoires</name><open>1</open>
<Style id="s_cercle"><LineStyle><color>e6ffa022</color><width>2</width></LineStyle><LabelStyle><scale>0</scale></LabelStyle></Style>
<Style id="s_secteur"><LineStyle><color>f20088ff</color><width>2</width></LineStyle><LabelStyle><scale>0</scale></LabelStyle></Style>
<Style id="s_limites"><LineStyle><color>f2ffffff</color><width>3</width></LineStyle><LabelStyle><scale>0</scale></LabelStyle></Style>
<Style id="s_zone0"><LineStyle><color>ff00d2ff</color><width>2</width></LineStyle><PolyStyle><color>1f00d2ff</color><fill>1</fill><outline>1</outline></PolyStyle><LabelStyle><scale>0</scale></LabelStyle></Style>
<Style id="s_zone0_v"><LineStyle><color>ff00d2ff</color><width>2</width></LineStyle><PolyStyle><color>2600d2ff</color><fill>1</fill><outline>1</outline></PolyStyle><LabelStyle><scale>0</scale></LabelStyle></Style>
<Style id="s_zone0_l"><LineStyle><color>e600d2ff</color><width>2</width></LineStyle><LabelStyle><scale>0</scale></LabelStyle></Style>
<Style id="s_zone1"><LineStyle><color>ff0000ff</color><width>2</width></LineStyle><PolyStyle><color>330000ff</color><fill>1</fill><outline>1</outline></PolyStyle><LabelStyle><scale>0</scale></LabelStyle></Style>
<Style id="s_zone1_v"><LineStyle><color>ff0000ff</color><width>2</width></LineStyle><PolyStyle><color>260000ff</color><fill>1</fill><outline>1</outline></PolyStyle><LabelStyle><scale>0</scale></LabelStyle></Style>
<Style id="s_zone1_l"><LineStyle><color>e60000ff</color><width>2</width></LineStyle><LabelStyle><scale>0</scale></LabelStyle></Style>
<Style id="s_v0_0"><LineStyle><color>ff00ffff</color><width>3</width></LineStyle><PolyStyle><color>5900ffff</color><fill>1</fill><outline>0</outline></PolyStyle><LabelStyle><scale>0</scale></LabelStyle></Style>
<Style id="s_v0_0_m"><LineStyle><color>5900ffff</color><width>1.5</width></LineStyle><LabelStyle><scale>0</scale></LabelStyle></Style>
<Style id="s_v0_1"><LineStyle><color>ff00ffff</color><width>3</width></LineStyle><PolyStyle><color>5900ffff</color><fill>1</fill><outline>0</outline></PolyStyle><LabelStyle><scale>0</scale></LabelStyle></Style>
<Style id="s_v0_1_m"><LineStyle><color>5900ffff</color><width>1.5</width></LineStyle><LabelStyle><scale>0</scale></LabelStyle></Style>
<Style id="s_v0_2"><LineStyle><color>ff00ffff</color><width>3</width></LineStyle><PolyStyle><color>5900ffff</color><fill>1</fill><outline>0</outline></PolyStyle><LabelStyle><scale>0</scale></LabelStyle></Style>
<Style id="s_v0_2_m"><LineStyle><color>5900ffff</color><width>1.5</width></LineStyle><LabelStyle><scale>0</scale></LabelStyle></Style>
<Style id="s_v0_3"><LineStyle><color>ff00ffff</color><width>3</width></LineStyle><PolyStyle><color>5900ffff</color><fill>1</fill><outline>0</outline></PolyStyle><LabelStyle><scale>0</scale></LabelStyle></Style>
<Style id="s_v0_3_m"><LineStyle><color>5900ffff</color><width>1.5</width></LineStyle><LabelStyle><scale>0</scale></LabelStyle></Style>
<Folder><name>Zones</name><open>1</open>
<Placemark><name>Périmètre de la base</name><description>Zone « perimetre »&lt;br/&gt;Décor&lt;br/&gt;Surface : 823.2 ha&lt;br/&gt;Plafond : 3000 m</description><styleUrl>#s_zone0</styleUrl><Polygon><extrude>0</extrude><altitudeMode>clampToGround</altitudeMode><outerBoundaryIs><LinearRing><coordinates>-0.07362220,43.22199720,428.96 -0.04529440,43.22611110,428.96 -0.04557500,43.21689440,428.96 -0.04145560,43.20756390,428.96 -0.06411940,43.18800280,428.96 -0.07570280,43.19047780,428.96 -0.07362220,43.22199720,428.96</coordinates></LinearRing></outerBoundaryIs></Polygon></Placemark>
<Placemark><name>Périmètre de la base — arêtes</name><description>Zone « perimetre »&lt;br/&gt;Décor&lt;br/&gt;Surface : 823.2 ha&lt;br/&gt;Plafond : 3000 m</description><styleUrl>#s_zone0_l</styleUrl><MultiGeometry><LineString><altitudeMode>absolute</altitudeMode><coordinates>-0.07362220,43.22199720,428.96 -0.07362220,43.22199720,3428.96</coordinates></LineString><LineString><altitudeMode>absolute</altitudeMode><coordinates>-0.04529440,43.22611110,428.96 -0.04529440,43.22611110,3428.96</coordinates></LineString><LineString><altitudeMode>absolute</altitudeMode><coordinates>-0.04557500,43.21689440,428.96 -0.04557500,43.21689440,3428.96</coordinates></LineString><LineString><altitudeMode>absolute</altitudeMode><coordinates>-0.04145560,43.20756390,428.96 -0.04145560,43.20756390,3428.96</coordinates></LineString><LineString><altitudeMode>absolute</altitudeMode><coordinates>-0.06411940,43.18800280,428.96 -0.06411940,43.18800280,3428.96</coordinates></LineString><LineString><altitudeMode>absolute</altitudeMode><coordinates>-0.07570280,43.19047780,428.96 -0.07570280,43.19047780,3428.96</coordinates></LineString></MultiGeometry></Placemark>
<Placemark><name>Périmètre de la base — plafond</name><description>Plafond à 3000 m au-dessus du sol</description><styleUrl>#s_zone0_l</styleUrl><LineString><altitudeMode>absolute</altitudeMode><coordinates>-0.07362220,43.22199720,3428.96 -0.04529440,43.22611110,3428.96 -0.04557500,43.21689440,3428.96 -0.04145560,43.20756390,3428.96 -0.06411940,43.18800280,3428.96 -0.07570280,43.19047780,3428.96 -0.07362220,43.22199720,3428.96</coordinates></LineString></Placemark>
<Placemark><name>Zone rouge</name><description>Zone « zone_rouge »&lt;br/&gt;Décor&lt;br/&gt;Surface : 69.0 ha</description><styleUrl>#s_zone1</styleUrl><Polygon><extrude>0</extrude><altitudeMode>clampToGround</altitudeMode><outerBoundaryIs><LinearRing><coordinates>-0.06125000,43.20947220,428.96 -0.05688610,43.21667500,428.96 -0.05113610,43.21520000,428.96 -0.05724170,43.20332220,428.96 -0.06070830,43.20362500,428.96 -0.06125000,43.20947220,428.96</coordinates></LinearRing></outerBoundaryIs></Polygon></Placemark>
</Folder>
<Folder><name>Pas de tir</name><open>1</open>
<Placemark><name>Rampe FusEx</name><description>Identifiant : rampe_fusex&lt;br/&gt;Altitude sol : 429 m</description><Point><altitudeMode>clampToGround</altitudeMode><coordinates>-0.04733330,43.21843610,428.96</coordinates></Point></Placemark>
<Placemark><name>Rampe Minif</name><description>Identifiant : rampe_minif&lt;br/&gt;Altitude sol : 433 m</description><Point><altitudeMode>clampToGround</altitudeMode><coordinates>-0.05221670,43.22072500,428.96</coordinates></Point></Placemark>
</Folder>
<Folder><name>Trajectoires</name><open>1</open>
<Folder><name>SP02 K570</name><open>1</open>
<Placemark><name>alpha 80 nominal</name><description>Groupe : SP02 K570&lt;br/&gt;Fichier : alpha_80.csv&lt;br/&gt;Pas de tir : Rampe FusEx&lt;br/&gt;Azimut : 214.6°&lt;br/&gt;Apogée : 993 m&lt;br/&gt;Portée : 429 m&lt;br/&gt;Points : 150 / 394&lt;br/&gt;Rideau : quadrillage_45</description><styleUrl>#s_v0_0</styleUrl><LineString><extrude>0</extrude><altitudeMode>absolute</altitudeMode><coordinates>-0.04733330,43.21843610,428.96 -0.04733331,43.21843609,428.96 -0.04733334,43.21843606,428.99 -0.04733344,43.21843595,429.06 -0.04733362,43.21843576,429.19 -0.04733379,43.21843558,429.32 -0.04733409,43.21843526,429.55 -0.04733435,43.21843499,429.75 -0.04733481,43.21843450,430.11 -0.04733536,43.21843392,430.55 -0.04733577,43.21843349,430.87 -0.04733647,43.21843275,431.42 -0.04733724,43.21843194,432.03 -0.04733780,43.21843135,432.48 -0.04733887,43.21843021,433.33 -0.04734290,43.21842596,436.48 -0.04734626,43.21842241,439.07 -0.04735493,43.21841326,445.64 -0.04736193,43.21840586,450.88 -0.04737427,43.21839282,459.99 -0.04738053,43.21838621,464.54 -0.04738435,43.21838217,467.29 -0.04739888,43.21836683,477.58 -0.04741723,43.21834744,490.29 -0.04743068,43.21833323,499.47 -0.04744364,43.21831954,508.25 -0.04746455,43.21829745,522.29 -0.04748093,43.21828015,533.16 -0.04750715,43.21825245,550.36 -0.04752365,43.21823501,561.06 -0.04755281,43.21820421,579.82 -0.04758370,43.21817158,599.47 -0.04760524,43.21814883,613.04 -0.04763888,43.21811329,634.05 -0.04767403,43.21807615,655.79 -0.04769829,43.21805053,670.66 -0.04773584,43.21801086,693.50 -0.04777463,43.21796988,716.88 -0.04780098,43.21794206,732.62 -0.04784083,43.21789996,756.26 -0.04788079,43.21785775,779.75 -0.04790737,43.21782966,795.26 -0.04794707,43.21778773,818.23 -0.04797335,43.21775997,833.32 -0.04801247,43.21771864,855.60 -0.04805123,43.21767769,877.45 -0.04807688,43.21765060,891.79 -0.04811505,43.21761027,912.96 -0.04815259,43.21757061,933.55 -0.04817710,43.21754473,946.88 -0.04821313,43.21750666,966.29 -0.04824834,43.21746947,985.04 -0.04827137,43.21744514,997.18 -0.04830530,43.21740930,1014.90 -0.04832753,43.21738581,1026.38 -0.04836030,43.21735119,1043.13 -0.04839243,43.21731725,1059.33 -0.04841351,43.21729498,1069.84 -0.04844465,43.21726209,1085.18 -0.04847522,43.21722980,1100.03 -0.04849530,43.21720858,1109.66 -0.04852501,43.21717720,1123.73 -0.04855423,43.21714633,1137.35 -0.04857345,43.21712603,1146.18 -0.04860191,43.21709596,1159.09 -0.04862064,43.21707618,1167.46 -0.04864840,43.21704686,1179.69 -0.04867576,43.21701795,1191.52 -0.04869379,43.21699890,1199.20 -0.04872054,43.21697065,1210.40 -0.04874694,43.21694276,1221.24 -0.04876435,43.21692437,1228.27 -0.04879020,43.21689706,1238.52 -0.04881573,43.21687009,1248.44 -0.04883259,43.21685228,1254.86 -0.04885764,43.21682581,1264.22 -0.04887419,43.21680834,1270.28 -0.04889879,43.21678234,1279.12 -0.04892313,43.21675664,1287.64 -0.04893923,43.21673963,1293.15 -0.04896316,43.21671434,1301.16 -0.04898688,43.21668929,1308.89 -0.04900256,43.21667273,1313.88 -0.04902592,43.21664805,1321.12 -0.04904906,43.21662360,1328.08 -0.04906439,43.21660741,1332.57 -0.04908722,43.21658329,1339.07 -0.04910233,43.21656733,1343.25 -0.04912486,43.21654353,1349.31 -0.04914722,43.21651991,1355.10 -0.04916204,43.21650426,1358.82 -0.04918412,43.21648092,1364.18 -0.04920607,43.21645775,1369.28 -0.04922061,43.21644239,1372.54 -0.04924231,43.21641946,1377.23 -0.04926387,43.21639668,1381.67 -0.04927817,43.21638158,1384.49 -0.04929952,43.21635902,1388.53 -0.04931368,43.21634406,1391.08 -0.04933482,43.21632173,1394.71 -0.04935585,43.21629952,1398.11 -0.04936980,43.21628478,1400.24 -0.04939065,43.21626275,1403.25 -0.04941139,43.21624085,1406.03 -0.04942516,43.21622630,1407.75 -0.04944572,43.21620458,1410.14 -0.04946620,43.21618295,1412.31 -0.04947979,43.21616858,1413.62 -0.04950012,43.21614712,1415.41 -0.04951361,43.21613286,1416.48 -0.04953378,43.21611155,1417.90 -0.04955387,43.21609033,1419.10 -0.04956721,43.21607624,1419.78 -0.04958716,43.21605516,1420.61 -0.04960704,43.21603416,1421.23 -0.04962025,43.21602021,1421.52 -0.04964000,43.21599935,1421.78 -0.04965313,43.21598547,1421.84 -0.04967928,43.21595785,1421.66 -0.04971844,43.21591648,1420.63 -0.04975760,43.21587511,1418.63 -0.04978373,43.21584752,1416.70 -0.04982300,43.21580603,1412.86 -0.04984932,43.21577822,1409.60 -0.04988917,43.21573612,1403.51 -0.04992970,43.21569331,1395.74 -0.04995726,43.21566420,1389.43 -0.04999972,43.21561935,1377.85 -0.05004401,43.21557256,1362.94 -0.05007488,43.21553995,1350.45 -0.05012394,43.21548812,1326.05 -0.05017747,43.21543158,1290.35 -0.05021475,43.21539219,1256.56 -0.05025686,43.21534771,1202.16 -0.05027682,43.21532662,1165.24 -0.05029815,43.21530409,1109.44 -0.05031223,43.21528921,1053.48 -0.05031886,43.21528222,1016.18 -0.05032592,43.21527475,960.28 -0.05033060,43.21526981,904.50 -0.05033282,43.21526747,867.39 -0.05033521,43.21526494,811.84 -0.05033683,43.21526323,756.44 -0.05033762,43.21526239,719.59 -0.05033851,43.21526145,664.44 -0.05033896,43.21526098,627.75 -0.05033949,43.21526042,572.85 -0.05033989,43.21525999,518.08 -0.05034012,43.21525976,481.65 -0.05034040,43.21525946,428.96</coordinates></LineString></Placemark>
<Placemark><name>alpha 80 nominal — quadrillage_45</name><description>Motif : quadrillage_45 (45°, 135°)&lt;br/&gt;Pas : 150 m&lt;br/&gt;Segments : 12</description><styleUrl>#s_v0_0_m</styleUrl><MultiGeometry><LineString><altitudeMode>absolute</altitudeMode><coordinates>-0.05030635,43.21529543,398.96 -0.05034037,43.21525949,433.82</coordinates></LineString><LineString><altitudeMode>absolute</altitudeMode><coordinates>-0.04881982,43.21686576,398.96 -0.05033874,43.21526121,645.71</coordinates></LineString><LineString><altitudeMode>absolute</altitudeMode><coordinates>-0.04733330,43.21843610,398.96 -0.05033326,43.21526700,857.06</coordinates></LineString><LineString><altitudeMode>absolute</altitudeMode><coordinates>-0.04774680,43.21799929,700.10 -0.05030914,43.21529247,1065.76</coordinates></LineString><LineString><altitudeMode>absolute</altitudeMode><coordinates>-0.04824517,43.21747282,983.35 -0.05020726,43.21540010,1263.35</coordinates></LineString><LineString><altitudeMode>absolute</altitudeMode><coordinates>-0.04894641,43.21673204,1295.55 -0.04979064,43.21584021,1416.03</coordinates></LineString><LineString><altitudeMode>absolute</altitudeMode><coordinates>-0.05016692,43.21544272,1297.38 -0.04940841,43.21624399,1405.63</coordinates></LineString><LineString><altitudeMode>absolute</altitudeMode><coordinates>-0.05030935,43.21529225,1064.93 -0.04887310,43.21680948,1269.89</coordinates></LineString><LineString><altitudeMode>absolute</altitudeMode><coordinates>-0.05033359,43.21526665,849.34 -0.04849856,43.21720514,1111.20</coordinates></LineString><LineString><altitudeMode>absolute</altitudeMode><coordinates>-0.05033885,43.21526109,636.45 -0.04817428,43.21754770,945.34</coordinates></LineString><LineString><altitudeMode>absolute</altitudeMode><coordinates>-0.05030635,43.21529543,398.96 -0.04787441,43.21786448,776.01</coordinates></LineString><LineString><altitudeMode>absolute</altitudeMode><coordinates>-0.04881982,43.21686576,398.96 -0.04759132,43.21816354,604.27</coordinates></LineString></MultiGeometry></Placemark>
<Placemark><name>alpha 80 nominal — trace au sol</name><description>Projection au sol</description><styleUrl>#s_v0_0</styleUrl><LineString><tessellate>1</tessellate><altitudeMode>clampToGround</altitudeMode><coordinates>-0.04733330,43.21843610,428.96 -0.04733331,43.21843609,428.96 -0.04733334,43.21843606,428.96 -0.04733344,43.21843595,428.96 -0.04733362,43.21843576,428.96 -0.04733379,43.21843558,428.96 -0.04733409,43.21843526,428.96 -0.04733435,43.21843499,428.96 -0.04733481,43.21843450,428.96 -0.04733536,43.21843392,428.96 -0.04733577,43.21843349,428.96 -0.04733647,43.21843275,428.96 -0.04733724,43.21843194,428.96 -0.04733780,43.21843135,428.96 -0.04733887,43.21843021,428.96 -0.04734290,43.21842596,428.96 -0.04734626,43.21842241,428.96 -0.04735493,43.21841326,428.96 -0.04736193,43.21840586,428.96 -0.04737427,43.21839282,428.96 -0.04738053,43.21838621,428.96 -0.04738435,43.21838217,428.96 -0.04739888,43.21836683,428.96 -0.04741723,43.21834744,428.96 -0.04743068,43.21833323,428.96 -0.04744364,43.21831954,428.96 -0.04746455,43.21829745,428.96 -0.04748093,43.21828015,428.96 -0.04750715,43.21825245,428.96 -0.04752365,43.21823501,428.96 -0.04755281,43.21820421,428.96 -0.04758370,43.21817158,428.96 -0.04760524,43.21814883,428.96 -0.04763888,43.21811329,428.96 -0.04767403,43.21807615,428.96 -0.04769829,43.21805053,428.96 -0.04773584,43.21801086,428.96 -0.04777463,43.21796988,428.96 -0.04780098,43.21794206,428.96 -0.04784083,43.21789996,428.96 -0.04788079,43.21785775,428.96 -0.04790737,43.21782966,428.96 -0.04794707,43.21778773,428.96 -0.04797335,43.21775997,428.96 -0.04801247,43.21771864,428.96 -0.04805123,43.21767769,428.96 -0.04807688,43.21765060,428.96 -0.04811505,43.21761027,428.96 -0.04815259,43.21757061,428.96 -0.04817710,43.21754473,428.96 -0.04821313,43.21750666,428.96 -0.04824834,43.21746947,428.96 -0.04827137,43.21744514,428.96 -0.04830530,43.21740930,428.96 -0.04832753,43.21738581,428.96 -0.04836030,43.21735119,428.96 -0.04839243,43.21731725,428.96 -0.04841351,43.21729498,428.96 -0.04844465,43.21726209,428.96 -0.04847522,43.21722980,428.96 -0.04849530,43.21720858,428.96 -0.04852501,43.21717720,428.96 -0.04855423,43.21714633,428.96 -0.04857345,43.21712603,428.96 -0.04860191,43.21709596,428.96 -0.04862064,43.21707618,428.96 -0.04864840,43.21704686,428.96 -0.04867576,43.21701795,428.96 -0.04869379,43.21699890,428.96 -0.04872054,43.21697065,428.96 -0.04874694,43.21694276,428.96 -0.04876435,43.21692437,428.96 -0.04879020,43.21689706,428.96 -0.04881573,43.21687009,428.96 -0.04883259,43.21685228,428.96 -0.04885764,43.21682581,428.96 -0.04887419,43.21680834,428.96 -0.04889879,43.21678234,428.96 -0.04892313,43.21675664,428.96 -0.04893923,43.21673963,428.96 -0.04896316,43.21671434,428.96 -0.04898688,43.21668929,428.96 -0.04900256,43.21667273,428.96 -0.04902592,43.21664805,428.96 -0.04904906,43.21662360,428.96 -0.04906439,43.21660741,428.96 -0.04908722,43.21658329,428.96 -0.04910233,43.21656733,428.96 -0.04912486,43.21654353,428.96 -0.04914722,43.21651991,428.96 -0.04916204,43.21650426,428.96 -0.04918412,43.21648092,428.96 -0.04920607,43.21645775,428.96 -0.04922061,43.21644239,428.96 -0.04924231,43.21641946,428.96 -0.04926387,43.21639668,428.96 -0.04927817,43.21638158,428.96 -0.04929952,43.21635902,428.96 -0.04931368,43.21634406,428.96 -0.04933482,43.21632173,428.96 -0.04935585,43.21629952,428.96 -0.04936980,43.21628478,428.96 -0.04939065,43.21626275,428.96 -0.04941139,43.21624085,428.96 -0.04942516,43.21622630,428.96 -0.04944572,43.21620458,428.96 -0.04946620,43.21618295,428.96 -0.04947979,43.21616858,428.96 -0.04950012,43.21614712,428.96 -0.04951361,43.21613286,428.96 -0.04953378,43.21611155,428.96 -0.04955387,43.21609033,428.96 -0.04956721,43.21607624,428.96 -0.04958716,43.21605516,428.96 -0.04960704,43.21603416,428.96 -0.04962025,43.21602021,428.96 -0.04964000,43.21599935,428.96 -0.04965313,43.21598547,428.96 -0.04967928,43.21595785,428.96 -0.04971844,43.21591648,428.96 -0.04975760,43.21587511,428.96 -0.04978373,43.21584752,428.96 -0.04982300,43.21580603,428.96 -0.04984932,43.21577822,428.96 -0.04988917,43.21573612,428.96 -0.04992970,43.21569331,428.96 -0.04995726,43.21566420,428.96 -0.04999972,43.21561935,428.96 -0.05004401,43.21557256,428.96 -0.05007488,43.21553995,428.96 -0.05012394,43.21548812,428.96 -0.05017747,43.21543158,428.96 -0.05021475,43.21539219,428.96 -0.05025686,43.21534771,428.96 -0.05027682,43.21532662,428.96 -0.05029815,43.21530409,428.96 -0.05031223,43.21528921,428.96 -0.05031886,43.21528222,428.96 -0.05032592,43.21527475,428.96 -0.05033060,43.21526981,428.96 -0.05033282,43.21526747,428.96 -0.05033521,43.21526494,428.96 -0.05033683,43.21526323,428.96 -0.05033762,43.21526239,428.96 -0.05033851,43.21526145,428.96 -0.05033896,43.21526098,428.96 -0.05033949,43.21526042,428.96 -0.05033989,43.21525999,428.96 -0.05034012,43.21525976,428.96 -0.05034040,43.21525946,428.96</coordinates></LineString></Placemark>
<Placemark><name>beta 80 nominal</name><description>Groupe : SP02 K570&lt;br/&gt;Fichier : beta_80.csv&lt;br/&gt;Pas de tir : Rampe FusEx&lt;br/&gt;Azimut : 214.6°&lt;br/&gt;Apogée : 3292 m&lt;br/&gt;Portée : 1302 m&lt;br/&gt;Points : 150 / 832&lt;br/&gt;Rideau : quadrillage_45</description><styleUrl>#s_v0_1</styleUrl><LineString><extrude>0</extrude><altitudeMode>absolute</altitudeMode><coordinates>-0.04733330,43.21843610,428.96 -0.04733338,43.21843602,429.01 -0.04733362,43.21843576,429.19 -0.04733422,43.21843513,429.65 -0.04733499,43.21843432,430.25 -0.04733622,43.21843301,431.23 -0.04733751,43.21843165,432.25 -0.04734086,43.21842811,434.89 -0.04735493,43.21841326,445.64 -0.04737427,43.21839282,459.99 -0.04738792,43.21837840,469.84 -0.04741723,43.21834744,490.29 -0.04744907,43.21831380,511.91 -0.04749819,43.21826192,544.51 -0.04754290,43.21821468,573.46 -0.04760524,43.21814883,613.04 -0.04766216,43.21808870,648.47 -0.04773584,43.21801086,693.50 -0.04780098,43.21794206,732.62 -0.04788079,43.21785775,779.75 -0.04796023,43.21777382,825.80 -0.04802543,43.21770495,862.93 -0.04810236,43.21762368,905.95 -0.04817114,43.21755103,943.67 -0.04828104,43.21743493,1003.04 -0.04839500,43.21731454,1063.86 -0.04855563,43.21714485,1148.72 -0.04873798,43.21695223,1244.14 -0.04883183,43.21685308,1292.93 -0.04888511,43.21679679,1320.55 -0.04894189,43.21673682,1349.91 -0.04905370,43.21661870,1407.53 -0.04915517,43.21651151,1459.62 -0.04926855,43.21639174,1517.59 -0.04929325,43.21636564,1530.19 -0.04931705,43.21634050,1542.32 -0.04934676,43.21630912,1557.45 -0.04937415,43.21628019,1571.38 -0.04941057,43.21624172,1589.89 -0.04945493,43.21619485,1612.40 -0.04950390,43.21614312,1637.21 -0.04959934,43.21604230,1685.45 -0.04970823,43.21592727,1740.30 -0.04981093,43.21581878,1791.85 -0.04990160,43.21572300,1837.23 -0.04995941,43.21566193,1866.10 -0.05005019,43.21556603,1911.32 -0.05014847,43.21546221,1960.12 -0.05028161,43.21532156,2025.98 -0.05041517,43.21518047,2091.71 -0.05049578,43.21509532,2131.22 -0.05060790,43.21497687,2185.92 -0.05078658,43.21478812,2272.47 -0.05095890,43.21460608,2355.12 -0.05109500,43.21446231,2419.73 -0.05125061,43.21429793,2492.83 -0.05137465,43.21416690,2550.45 -0.05151753,43.21401596,2616.04 -0.05163214,43.21389489,2668.00 -0.05176485,43.21375470,2727.37 -0.05189281,43.21361952,2783.76 -0.05199615,43.21351036,2828.64 -0.05211652,43.21338320,2880.14 -0.05221405,43.21328017,2921.19 -0.05232801,43.21315978,2968.38 -0.05243887,43.21304267,3013.42 -0.05252906,43.21294740,3049.39 -0.05263483,43.21283566,3090.80 -0.05272108,43.21274455,3123.89 -0.05282245,43.21263747,3162.00 -0.05290525,43.21255000,3192.46 -0.05300274,43.21244701,3227.53 -0.05309833,43.21234604,3261.04 -0.05317660,43.21226335,3287.83 -0.05326900,43.21216574,3318.64 -0.05334477,43.21208570,3343.25 -0.05343433,43.21199109,3371.53 -0.05350788,43.21191340,3394.10 -0.05359491,43.21182146,3420.00 -0.05368069,43.21173084,3444.65 -0.05375126,43.21165629,3464.27 -0.05383491,43.21156792,3486.73 -0.05390381,43.21149514,3504.56 -0.05398557,43.21140877,3524.91 -0.05405296,43.21133758,3541.03 -0.05413301,43.21125302,3559.37 -0.05421220,43.21116936,3576.64 -0.05427757,43.21110031,3590.23 -0.05435531,43.21101818,3605.59 -0.05441954,43.21095034,3617.61 -0.05449597,43.21086959,3631.12 -0.05457175,43.21078954,3643.64 -0.05463443,43.21072333,3653.33 -0.05470910,43.21064445,3664.07 -0.05477089,43.21057917,3672.29 -0.05484454,43.21050137,3681.29 -0.05490553,43.21043694,3688.08 -0.05497827,43.21036010,3695.38 -0.05505054,43.21028375,3701.76 -0.05511044,43.21022048,3706.38 -0.05518192,43.21014497,3711.10 -0.05524116,43.21008238,3714.34 -0.05531191,43.21000765,3717.42 -0.05537057,43.20994568,3719.31 -0.05544063,43.20987167,3720.77 -0.05552194,43.20978578,3721.36 -0.05558577,43.20971834,3720.97 -0.05569365,43.20960438,3718.30 -0.05578551,43.20950735,3713.53 -0.05589626,43.20939035,3703.79 -0.05598847,43.20929295,3691.24 -0.05609978,43.20917536,3668.39 -0.05621411,43.20905458,3630.63 -0.05631412,43.20894894,3572.92 -0.05639423,43.20886431,3473.67 -0.05642264,43.20883429,3389.51 -0.05643736,43.20881875,3288.57 -0.05644324,43.20881253,3188.07 -0.05644542,43.20881023,3104.70 -0.05644669,43.20880889,3005.13 -0.05644727,43.20880828,2922.53 -0.05644774,43.20880778,2823.87 -0.05644804,43.20880747,2742.03 -0.05644836,43.20880713,2644.27 -0.05644865,43.20880681,2547.00 -0.05644890,43.20880656,2466.31 -0.05644919,43.20880625,2369.89 -0.05644943,43.20880600,2289.90 -0.05644971,43.20880570,2194.35 -0.05644994,43.20880546,2115.07 -0.05645021,43.20880517,2020.35 -0.05645048,43.20880488,1926.07 -0.05645071,43.20880464,1847.83 -0.05645098,43.20880436,1754.36 -0.05645121,43.20880412,1676.79 -0.05645146,43.20880385,1584.11 -0.05645168,43.20880362,1507.19 -0.05645194,43.20880334,1415.28 -0.05645220,43.20880307,1323.76 -0.05645241,43.20880285,1247.83 -0.05645266,43.20880258,1157.07 -0.05645287,43.20880236,1081.75 -0.05645313,43.20880209,991.73 -0.05645337,43.20880183,902.10 -0.05645357,43.20880162,827.70 -0.05645382,43.20880136,738.78 -0.05645402,43.20880115,664.97 -0.05645425,43.20880090,576.75 -0.05645445,43.20880069,503.52 -0.05645465,43.20880048,428.96</coordinates></LineString></Placemark>
<Placemark><name>beta 80 nominal — quadrillage_45</name><description>Motif : quadrillage_45 (45°, 135°)&lt;br/&gt;Pas : 150 m&lt;br/&gt;Segments : 38</description><styleUrl>#s_v0_1_m</styleUrl><MultiGeometry><LineString><altitudeMode>absolute</altitudeMode><coordinates>-0.05625244,43.20901409,398.96 -0.05645457,43.20880056,457.80</coordinates></LineString><LineString><altitudeMode>absolute</altitudeMode><coordinates>-0.05476592,43.21058442,398.96 -0.05645400,43.20880117,669.85</coordinates></LineString><LineString><altitudeMode>absolute</altitudeMode><coordinates>-0.05327940,43.21215476,398.96 -0.05645342,43.20880177,881.90</coordinates></LineString><LineString><altitudeMode>absolute</altitudeMode><coordinates>-0.05179287,43.21372509,398.96 -0.05645284,43.20880239,1093.95</coordinates></LineString><LineString><altitudeMode>absolute</altitudeMode><coordinates>-0.05030635,43.21529543,398.96 -0.05645225,43.20880302,1306.00</coordinates></LineString><LineString><altitudeMode>absolute</altitudeMode><coordinates>-0.04881982,43.21686576,398.96 -0.05645165,43.20880365,1518.05</coordinates></LineString><LineString><altitudeMode>absolute</altitudeMode><coordinates>-0.04733330,43.21843610,398.96 -0.05645105,43.20880428,1730.09</coordinates></LineString><LineString><altitudeMode>absolute</altitudeMode><coordinates>-0.04774685,43.21799924,700.11 -0.05645044,43.20880493,1942.14</coordinates></LineString><LineString><altitudeMode>absolute</altitudeMode><coordinates>-0.04824438,43.21747365,983.24 -0.05644982,43.20880558,2154.18</coordinates></LineString><LineString><altitudeMode>absolute</altitudeMode><coordinates>-0.04879542,43.21689154,1274.01 -0.05644920,43.20880624,2366.23</coordinates></LineString><LineString><altitudeMode>absolute</altitudeMode><coordinates>-0.04936690,43.21628785,1567.69 -0.05644856,43.20880692,2578.27</coordinates></LineString><LineString><altitudeMode>absolute</altitudeMode><coordinates>-0.04995458,43.21566703,1863.69 -0.05644786,43.20880765,2790.30</coordinates></LineString><LineString><altitudeMode>absolute</altitudeMode><coordinates>-0.05055902,43.21502851,2162.07 -0.05644671,43.20880887,3002.27</coordinates></LineString><LineString><altitudeMode>absolute</altitudeMode><coordinates>-0.05118966,43.21436232,2464.20 -0.05644174,43.20881412,3213.69</coordinates></LineString><LineString><altitudeMode>absolute</altitudeMode><coordinates>-0.05186902,43.21364466,2773.28 -0.05641182,43.20884572,3421.55</coordinates></LineString><LineString><altitudeMode>absolute</altitudeMode><coordinates>-0.05265100,43.21281858,3097.00 -0.05624907,43.20901766,3610.46</coordinates></LineString><LineString><altitudeMode>absolute</altitudeMode><coordinates>-0.05376614,43.21164057,3468.27 -0.05553897,43.20976779,3721.26</coordinates></LineString><LineString><altitudeMode>absolute</altitudeMode><coordinates>-0.05624685,43.20902000,3611.74 -0.05548078,43.20982926,3721.06</coordinates></LineString><LineString><altitudeMode>absolute</altitudeMode><coordinates>-0.05642487,43.20883194,3374.20 -0.05455555,43.21080665,3640.96</coordinates></LineString><LineString><altitudeMode>absolute</altitudeMode><coordinates>-0.05644399,43.20881174,3159.34 -0.05394792,43.21144855,3515.54</coordinates></LineString><LineString><altitudeMode>absolute</altitudeMode><coordinates>-0.05644710,43.20880846,2946.77 -0.05344582,43.21197895,3375.06</coordinates></LineString><LineString><altitudeMode>absolute</altitudeMode><coordinates>-0.05644806,43.20880744,2734.50 -0.05300001,43.21244989,3226.55</coordinates></LineString><LineString><altitudeMode>absolute</altitudeMode><coordinates>-0.05644873,43.20880674,2522.27 -0.05258939,43.21288367,3073.01</coordinates></LineString><LineString><altitudeMode>absolute</altitudeMode><coordinates>-0.05644936,43.20880607,2310.05 -0.05220207,43.21329283,2916.15</coordinates></LineString><LineString><altitudeMode>absolute</altitudeMode><coordinates>-0.05644999,43.20880541,2097.83 -0.05183177,43.21368401,2756.86</coordinates></LineString><LineString><altitudeMode>absolute</altitudeMode><coordinates>-0.05645060,43.20880476,1885.61 -0.05147354,43.21406243,2595.85</coordinates></LineString><LineString><altitudeMode>absolute</altitudeMode><coordinates>-0.05645121,43.20880411,1673.39 -0.05112440,43.21443126,2433.54</coordinates></LineString><LineString><altitudeMode>absolute</altitudeMode><coordinates>-0.05645181,43.20880348,1461.17 -0.05078202,43.21479293,2270.27</coordinates></LineString><LineString><altitudeMode>absolute</altitudeMode><coordinates>-0.05645241,43.20880285,1248.95 -0.05044484,43.21514912,2106.25</coordinates></LineString><LineString><altitudeMode>absolute</altitudeMode><coordinates>-0.05645300,43.20880223,1036.74 -0.05011139,43.21550138,1941.71</coordinates></LineString><LineString><altitudeMode>absolute</altitudeMode><coordinates>-0.05645358,43.20880161,824.52 -0.04978083,43.21585057,1776.75</coordinates></LineString><LineString><altitudeMode>absolute</altitudeMode><coordinates>-0.05645416,43.20880100,612.31 -0.04945297,43.21619692,1611.40</coordinates></LineString><LineString><altitudeMode>absolute</altitudeMode><coordinates>-0.05625244,43.20901409,398.96 -0.04912796,43.21654026,1445.65</coordinates></LineString><LineString><altitudeMode>absolute</altitudeMode><coordinates>-0.05476592,43.21058442,398.96 -0.04880593,43.21688044,1279.47</coordinates></LineString><LineString><altitudeMode>absolute</altitudeMode><coordinates>-0.05327940,43.21215476,398.96 -0.04848758,43.21721674,1112.77</coordinates></LineString><LineString><altitudeMode>absolute</altitudeMode><coordinates>-0.05179287,43.21372509,398.96 -0.04817424,43.21754775,945.35</coordinates></LineString><LineString><altitudeMode>absolute</altitudeMode><coordinates>-0.05030635,43.21529543,398.96 -0.04787443,43.21786446,776.00</coordinates></LineString><LineString><altitudeMode>absolute</altitudeMode><coordinates>-0.04881982,43.21686576,398.96 -0.04759141,43.21816344,604.26</coordinates></LineString></MultiGeometry></Placemark>
<Placemark><name>beta 80 nominal — trace au sol</name><description>Projection au sol</description><styleUrl>#s_v0_1</styleUrl><LineString><tessellate>1</tessellate><altitudeMode>clampToGround</altitudeMode><coordinates>-0.04733330,43.21843610,428.96 -0.04733338,43.21843602,428.96 -0.04733362,43.21843576,428.96 -0.04733422,43.21843513,428.96 -0.04733499,43.21843432,428.96 -0.04733622,43.21843301,428.96 -0.04733751,43.21843165,428.96 -0.04734086,43.21842811,428.96 -0.04735493,43.21841326,428.96 -0.04737427,43.21839282,428.96 -0.04738792,43.21837840,428.96 -0.04741723,43.21834744,428.96 -0.04744907,43.21831380,428.96 -0.04749819,43.21826192,428.96 -0.04754290,43.21821468,428.96 -0.04760524,43.21814883,428.96 -0.04766216,43.21808870,428.96 -0.04773584,43.21801086,428.96 -0.04780098,43.21794206,428.96 -0.04788079,43.21785775,428.96 -0.04796023,43.21777382,428.96 -0.04802543,43.21770495,428.96 -0.04810236,43.21762368,428.96 -0.04817114,43.21755103,428.96 -0.04828104,43.21743493,428.96 -0.04839500,43.21731454,428.96 -0.04855563,43.21714485,428.96 -0.04873798,43.21695223,428.96 -0.04883183,43.21685308,428.96 -0.04888511,43.21679679,428.96 -0.04894189,43.21673682,428.96 -0.04905370,43.21661870,428.96 -0.04915517,43.21651151,428.96 -0.04926855,43.21639174,428.96 -0.04929325,43.21636564,428.96 -0.04931705,43.21634050,428.96 -0.04934676,43.21630912,428.96 -0.04937415,43.21628019,428.96 -0.04941057,43.21624172,428.96 -0.04945493,43.21619485,428.96 -0.04950390,43.21614312,428.96 -0.04959934,43.21604230,428.96 -0.04970823,43.21592727,428.96 -0.04981093,43.21581878,428.96 -0.04990160,43.21572300,428.96 -0.04995941,43.21566193,428.96 -0.05005019,43.21556603,428.96 -0.05014847,43.21546221,428.96 -0.05028161,43.21532156,428.96 -0.05041517,43.21518047,428.96 -0.05049578,43.21509532,428.96 -0.05060790,43.21497687,428.96 -0.05078658,43.21478812,428.96 -0.05095890,43.21460608,428.96 -0.05109500,43.21446231,428.96 -0.05125061,43.21429793,428.96 -0.05137465,43.21416690,428.96 -0.05151753,43.21401596,428.96 -0.05163214,43.21389489,428.96 -0.05176485,43.21375470,428.96 -0.05189281,43.21361952,428.96 -0.05199615,43.21351036,428.96 -0.05211652,43.21338320,428.96 -0.05221405,43.21328017,428.96 -0.05232801,43.21315978,428.96 -0.05243887,43.21304267,428.96 -0.05252906,43.21294740,428.96 -0.05263483,43.21283566,428.96 -0.05272108,43.21274455,428.96 -0.05282245,43.21263747,428.96 -0.05290525,43.21255000,428.96 -0.05300274,43.21244701,428.96 -0.05309833,43.21234604,428.96 -0.05317660,43.21226335,428.96 -0.05326900,43.21216574,428.96 -0.05334477,43.21208570,428.96 -0.05343433,43.21199109,428.96 -0.05350788,43.21191340,428.96 -0.05359491,43.21182146,428.96 -0.05368069,43.21173084,428.96 -0.05375126,43.21165629,428.96 -0.05383491,43.21156792,428.96 -0.05390381,43.21149514,428.96 -0.05398557,43.21140877,428.96 -0.05405296,43.21133758,428.96 -0.05413301,43.21125302,428.96 -0.05421220,43.21116936,428.96 -0.05427757,43.21110031,428.96 -0.05435531,43.21101818,428.96 -0.05441954,43.21095034,428.96 -0.05449597,43.21086959,428.96 -0.05457175,43.21078954,428.96 -0.05463443,43.21072333,428.96 -0.05470910,43.21064445,428.96 -0.05477089,43.21057917,428.96 -0.05484454,43.21050137,428.96 -0.05490553,43.21043694,428.96 -0.05497827,43.21036010,428.96 -0.05505054,43.21028375,428.96 -0.05511044,43.21022048,428.96 -0.05518192,43.21014497,428.96 -0.05524116,43.21008238,428.96 -0.05531191,43.21000765,428.96 -0.05537057,43.20994568,428.96 -0.05544063,43.20987167,428.96 -0.05552194,43.20978578,428.96 -0.05558577,43.20971834,428.96 -0.05569365,43.20960438,428.96 -0.05578551,43.20950735,428.96 -0.05589626,43.20939035,428.96 -0.05598847,43.20929295,428.96 -0.05609978,43.20917536,428.96 -0.05621411,43.20905458,428.96 -0.05631412,43.20894894,428.96 -0.05639423,43.20886431,428.96 -0.05642264,43.20883429,428.96 -0.05643736,43.20881875,428.96 -0.05644324,43.20881253,428.96 -0.05644542,43.20881023,428.96 -0.05644669,43.20880889,428.96 -0.05644727,43.20880828,428.96 -0.05644774,43.20880778,428.96 -0.05644804,43.20880747,428.96 -0.05644836,43.20880713,428.96 -0.05644865,43.20880681,428.96 -0.05644890,43.20880656,428.96 -0.05644919,43.20880625,428.96 -0.05644943,43.20880600,428.96 -0.05644971,43.20880570,428.96 -0.05644994,43.20880546,428.96 -0.05645021,43.20880517,428.96 -0.05645048,43.20880488,428.96 -0.05645071,43.20880464,428.96 -0.05645098,43.20880436,428.96 -0.05645121,43.20880412,428.96 -0.05645146,43.20880385,428.96 -0.05645168,43.20880362,428.96 -0.05645194,43.20880334,428.96 -0.05645220,43.20880307,428.96 -0.05645241,43.20880285,428.96 -0.05645266,43.20880258,428.96 -0.05645287,43.20880236,428.96 -0.05645313,43.20880209,428.96 -0.05645337,43.20880183,428.96 -0.05645357,43.20880162,428.96 -0.05645382,43.20880136,428.96 -0.05645402,43.20880115,428.96 -0.05645425,43.20880090,428.96 -0.05645445,43.20880069,428.96 -0.05645465,43.20880048,428.96</coordinates></LineString></Placemark>
<Placemark><name>alpha 45 nominal</name><description>Groupe : SP02 K570&lt;br/&gt;Fichier : alpha_45.csv&lt;br/&gt;Pas de tir : Rampe FusEx&lt;br/&gt;Azimut : 214.6°&lt;br/&gt;Apogée : 458 m&lt;br/&gt;Portée : 1492 m&lt;br/&gt;Points : 150 / 452&lt;br/&gt;Rideau : quadrillage_45</description><styleUrl>#s_v0_2</styleUrl><LineString><extrude>0</extrude><altitudeMode>absolute</altitudeMode><coordinates>-0.04733330,43.21843610,428.96 -0.04733334,43.21843606,428.96 -0.04733362,43.21843577,428.99 -0.04733407,43.21843529,429.04 -0.04733498,43.21843432,429.16 -0.04733624,43.21843299,429.32 -0.04733771,43.21843144,429.52 -0.04733966,43.21842938,429.78 -0.04734198,43.21842694,430.10 -0.04734465,43.21842412,430.46 -0.04734767,43.21842092,430.88 -0.04735104,43.21841736,431.35 -0.04735477,43.21841342,431.86 -0.04736511,43.21840250,433.28 -0.04738764,43.21837869,436.28 -0.04742359,43.21834072,440.96 -0.04746847,43.21829331,446.67 -0.04752229,43.21823645,453.32 -0.04753522,43.21822280,454.88 -0.04760378,43.21815037,462.96 -0.04767792,43.21807205,471.39 -0.04776035,43.21798497,480.53 -0.04780571,43.21793706,485.49 -0.04789987,43.21783759,495.64 -0.04800161,43.21773011,506.34 -0.04810247,43.21762356,516.72 -0.04821760,43.21750195,528.39 -0.04833920,43.21737349,540.48 -0.04846697,43.21723851,552.95 -0.04860045,43.21709751,565.76 -0.04873938,43.21695074,578.86 -0.04888344,43.21679856,592.22 -0.04903222,43.21664139,605.80 -0.04918441,43.21648062,619.46 -0.04933806,43.21631831,633.03 -0.04949191,43.21615579,646.40 -0.04964516,43.21599390,659.50 -0.04979725,43.21583323,672.28 -0.04994788,43.21567411,684.72 -0.05009698,43.21551661,696.81 -0.05024459,43.21536067,708.57 -0.05039076,43.21520626,719.98 -0.05053416,43.21505478,730.97 -0.05067363,43.21490744,741.44 -0.05080941,43.21476401,751.41 -0.05094171,43.21462425,760.91 -0.05107074,43.21448794,769.95 -0.05119668,43.21435490,778.57 -0.05131969,43.21422496,786.76 -0.05143993,43.21409793,794.55 -0.05155754,43.21397369,801.96 -0.05167266,43.21385209,808.99 -0.05178539,43.21373300,815.65 -0.05189585,43.21361630,821.96 -0.05200416,43.21350189,827.94 -0.05211040,43.21338967,833.58 -0.05224899,43.21324326,840.59 -0.05235074,43.21313578,845.49 -0.05245070,43.21303017,850.09 -0.05254895,43.21292639,854.38 -0.05264554,43.21282435,858.39 -0.05274056,43.21272398,862.11 -0.05283404,43.21262523,865.55 -0.05292605,43.21252803,868.72 -0.05301663,43.21243234,871.63 -0.05310585,43.21233808,874.27 -0.05319375,43.21224523,876.65 -0.05328036,43.21215374,878.78 -0.05336574,43.21206354,880.67 -0.05344992,43.21197462,882.30 -0.05353294,43.21188692,883.70 -0.05361482,43.21180042,884.86 -0.05369561,43.21171508,885.78 -0.05377533,43.21163086,886.47 -0.05385403,43.21154773,886.94 -0.05393171,43.21146566,887.18 -0.05398296,43.21141153,887.22 -0.05408417,43.21130461,887.00 -0.05415898,43.21122558,886.59 -0.05423289,43.21114750,885.96 -0.05430591,43.21107037,885.12 -0.05437806,43.21099415,884.07 -0.05444935,43.21091884,882.82 -0.05451982,43.21084440,881.36 -0.05458948,43.21077081,879.70 -0.05465833,43.21069808,877.84 -0.05472639,43.21062618,875.78 -0.05479369,43.21055509,873.53 -0.05486023,43.21048480,871.08 -0.05492602,43.21041530,868.44 -0.05499109,43.21034656,865.62 -0.05505543,43.21027859,862.60 -0.05511906,43.21021137,859.40 -0.05518200,43.21014488,856.02 -0.05526484,43.21005738,851.23 -0.05532617,43.20999258,847.42 -0.05538684,43.20992849,843.44 -0.05544685,43.20986510,839.28 -0.05550620,43.20980241,834.95 -0.05556490,43.20974040,830.45 -0.05562296,43.20967906,825.78 -0.05568039,43.20961839,820.94 -0.05573719,43.20955840,815.93 -0.05579337,43.20949905,810.76 -0.05584893,43.20944035,805.43 -0.05590387,43.20938231,799.94 -0.05595822,43.20932490,794.28 -0.05601196,43.20926813,788.48 -0.05606510,43.20921199,782.51 -0.05611766,43.20915647,776.40 -0.05616962,43.20910158,770.13 -0.05622101,43.20904730,763.72 -0.05627181,43.20899363,757.16 -0.05632204,43.20894057,750.45 -0.05637169,43.20888812,743.60 -0.05642078,43.20883626,736.62 -0.05646931,43.20878500,729.49 -0.05651727,43.20873433,722.22 -0.05656468,43.20868425,714.82 -0.05661153,43.20863475,707.29 -0.05665784,43.20858584,699.63 -0.05670360,43.20853750,691.84 -0.05674881,43.20848974,683.92 -0.05679349,43.20844254,675.88 -0.05683763,43.20839591,667.71 -0.05688123,43.20834985,659.43 -0.05692431,43.20830434,651.03 -0.05696686,43.20825939,642.51 -0.05700889,43.20821499,633.87 -0.05705041,43.20817114,625.13 -0.05709141,43.20812782,616.27 -0.05714527,43.20807092,604.29 -0.05718508,43.20802886,595.19 -0.05722439,43.20798734,585.98 -0.05726320,43.20794635,576.67 -0.05730151,43.20790588,567.26 -0.05733933,43.20786592,557.75 -0.05737665,43.20782650,548.14 -0.05741349,43.20778758,538.44 -0.05744986,43.20774916,528.65 -0.05748574,43.20771125,518.77 -0.05752115,43.20767385,508.80 -0.05755609,43.20763694,498.75 -0.05759057,43.20760052,488.61 -0.05762458,43.20756459,478.39 -0.05765813,43.20752915,468.09 -0.05769123,43.20749418,457.71 -0.05772388,43.20745969,447.25 -0.05775608,43.20742568,436.71 -0.05778784,43.20739213,426.10</coordinates></LineString></Placemark>
<Placemark><name>alpha 45 nominal — quadrillage_45</name><description>Motif : quadrillage_45 (45°, 135°)&lt;br/&gt;Pas : 150 m&lt;br/&gt;Segments : 14</description><styleUrl>#s_v0_2_m</styleUrl><MultiGeometry><LineString><altitudeMode>absolute</altitudeMode><coordinates>-0.05773897,43.20744375,398.96 -0.05776722,43.20741391,432.99</coordinates></LineString><LineString><altitudeMode>absolute</altitudeMode><coordinates>-0.05625244,43.20901409,398.96 -0.05727213,43.20793691,574.47</coordinates></LineString><LineString><altitudeMode>absolute</altitudeMode><coordinates>-0.05476592,43.21058442,398.96 -0.05666003,43.20858352,699.26</coordinates></LineString><LineString><altitudeMode>absolute</altitudeMode><coordinates>-0.05327940,43.21215476,398.96 -0.05588926,43.20939775,801.40</coordinates></LineString><LineString><altitudeMode>absolute</altitudeMode><coordinates>-0.05179287,43.21372509,398.96 -0.05488429,43.21045938,870.12</coordinates></LineString><LineString><altitudeMode>absolute</altitudeMode><coordinates>-0.05030635,43.21529543,398.96 -0.05348761,43.21193481,882.94</coordinates></LineString><LineString><altitudeMode>absolute</altitudeMode><coordinates>-0.04881982,43.21686576,398.96 -0.05133333,43.21421054,787.65</coordinates></LineString><LineString><altitudeMode>absolute</altitudeMode><coordinates>-0.05773897,43.20744375,398.96 -0.05457860,43.21078230,879.96</coordinates></LineString><LineString><altitudeMode>absolute</altitudeMode><coordinates>-0.05625244,43.20901409,398.96 -0.05312775,43.21231495,874.86</coordinates></LineString><LineString><altitudeMode>absolute</altitudeMode><coordinates>-0.05476592,43.21058442,398.96 -0.05197958,43.21352786,826.58</coordinates></LineString><LineString><altitudeMode>absolute</altitudeMode><coordinates>-0.05327940,43.21215476,398.96 -0.05094945,43.21461607,761.45</coordinates></LineString><LineString><altitudeMode>absolute</altitudeMode><coordinates>-0.05179287,43.21372509,398.96 -0.04998151,43.21563858,687.45</coordinates></LineString><LineString><altitudeMode>absolute</altitudeMode><coordinates>-0.05030635,43.21529543,398.96 -0.04905366,43.21661874,607.72</coordinates></LineString><LineString><altitudeMode>absolute</altitudeMode><coordinates>-0.04881982,43.21686577,398.96 -0.04816231,43.21756035,522.79</coordinates></LineString></MultiGeometry></Placemark>
<Placemark><name>alpha 45 nominal — trace au sol</name><description>Projection au sol</description><styleUrl>#s_v0_2</styleUrl><LineString><tessellate>1</tessellate><altitudeMode>clampToGround</altitudeMode><coordinates>-0.04733330,43.21843610,428.96 -0.04733334,43.21843606,428.96 -0.04733362,43.21843577,428.96 -0.04733407,43.21843529,428.96 -0.04733498,43.21843432,428.96 -0.04733624,43.21843299,428.96 -0.04733771,43.21843144,428.96 -0.04733966,43.21842938,428.96 -0.04734198,43.21842694,428.96 -0.04734465,43.21842412,428.96 -0.04734767,43.21842092,428.96 -0.04735104,43.21841736,428.96 -0.04735477,43.21841342,428.96 -0.04736511,43.21840250,428.96 -0.04738764,43.21837869,428.96 -0.04742359,43.21834072,428.96 -0.04746847,43.21829331,428.96 -0.04752229,43.21823645,428.96 -0.04753522,43.21822280,428.96 -0.04760378,43.21815037,428.96 -0.04767792,43.21807205,428.96 -0.04776035,43.21798497,428.96 -0.04780571,43.21793706,428.96 -0.04789987,43.21783759,428.96 -0.04800161,43.21773011,428.96 -0.04810247,43.21762356,428.96 -0.04821760,43.21750195,428.96 -0.04833920,43.21737349,428.96 -0.04846697,43.21723851,428.96 -0.04860045,43.21709751,428.96 -0.04873938,43.21695074,428.96 -0.04888344,43.21679856,428.96 -0.04903222,43.21664139,428.96 -0.04918441,43.21648062,428.96 -0.04933806,43.21631831,428.96 -0.04949191,43.21615579,428.96 -0.04964516,43.21599390,428.96 -0.04979725,43.21583323,428.96 -0.04994788,43.21567411,428.96 -0.05009698,43.21551661,428.96 -0.05024459,43.21536067,428.96 -0.05039076,43.21520626,428.96 -0.05053416,43.21505478,428.96 -0.05067363,43.21490744,428.96 -0.05080941,43.21476401,428.96 -0.05094171,43.21462425,428.96 -0.05107074,43.21448794,428.96 -0.05119668,43.21435490,428.96 -0.05131969,43.21422496,428.96 -0.05143993,43.21409793,428.96 -0.05155754,43.21397369,428.96 -0.05167266,43.21385209,428.96 -0.05178539,43.21373300,428.96 -0.05189585,43.21361630,428.96 -0.05200416,43.21350189,428.96 -0.05211040,43.21338967,428.96 -0.05224899,43.21324326,428.96 -0.05235074,43.21313578,428.96 -0.05245070,43.21303017,428.96 -0.05254895,43.21292639,428.96 -0.05264554,43.21282435,428.96 -0.05274056,43.21272398,428.96 -0.05283404,43.21262523,428.96 -0.05292605,43.21252803,428.96 -0.05301663,43.21243234,428.96 -0.05310585,43.21233808,428.96 -0.05319375,43.21224523,428.96 -0.05328036,43.21215374,428.96 -0.05336574,43.21206354,428.96 -0.05344992,43.21197462,428.96 -0.05353294,43.21188692,428.96 -0.05361482,43.21180042,428.96 -0.05369561,43.21171508,428.96 -0.05377533,43.21163086,428.96 -0.05385403,43.21154773,428.96 -0.05393171,43.21146566,428.96 -0.05398296,43.21141153,428.96 -0.05408417,43.21130461,428.96 -0.05415898,43.21122558,428.96 -0.05423289,43.21114750,428.96 -0.05430591,43.21107037,428.96 -0.05437806,43.21099415,428.96 -0.05444935,43.21091884,428.96 -0.05451982,43.21084440,428.96 -0.05458948,43.21077081,428.96 -0.05465833,43.21069808,428.96 -0.05472639,43.21062618,428.96 -0.05479369,43.21055509,428.96 -0.05486023,43.21048480,428.96 -0.05492602,43.21041530,428.96 -0.05499109,43.21034656,428.96 -0.05505543,43.21027859,428.96 -0.05511906,43.21021137,428.96 -0.05518200,43.21014488,428.96 -0.05526484,43.21005738,428.96 -0.05532617,43.20999258,428.96 -0.05538684,43.20992849,428.96 -0.05544685,43.20986510,428.96 -0.05550620,43.20980241,428.96 -0.05556490,43.20974040,428.96 -0.05562296,43.20967906,428.96 -0.05568039,43.20961839,428.96 -0.05573719,43.20955840,428.96 -0.05579337,43.20949905,428.96 -0.05584893,43.20944035,428.96 -0.05590387,43.20938231,428.96 -0.05595822,43.20932490,428.96 -0.05601196,43.20926813,428.96 -0.05606510,43.20921199,428.96 -0.05611766,43.20915647,428.96 -0.05616962,43.20910158,428.96 -0.05622101,43.20904730,428.96 -0.05627181,43.20899363,428.96 -0.05632204,43.20894057,428.96 -0.05637169,43.20888812,428.96 -0.05642078,43.20883626,428.96 -0.05646931,43.20878500,428.96 -0.05651727,43.20873433,428.96 -0.05656468,43.20868425,428.96 -0.05661153,43.20863475,428.96 -0.05665784,43.20858584,428.96 -0.05670360,43.20853750,428.96 -0.05674881,43.20848974,428.96 -0.05679349,43.20844254,428.96 -0.05683763,43.20839591,428.96 -0.05688123,43.20834985,428.96 -0.05692431,43.20830434,428.96 -0.05696686,43.20825939,428.96 -0.05700889,43.20821499,428.96 -0.05705041,43.20817114,428.96 -0.05709141,43.20812782,428.96 -0.05714527,43.20807092,428.96 -0.05718508,43.20802886,428.96 -0.05722439,43.20798734,428.96 -0.05726320,43.20794635,428.96 -0.05730151,43.20790588,428.96 -0.05733933,43.20786592,428.96 -0.05737665,43.20782650,428.96 -0.05741349,43.20778758,428.96 -0.05744986,43.20774916,428.96 -0.05748574,43.20771125,428.96 -0.05752115,43.20767385,428.96 -0.05755609,43.20763694,428.96 -0.05759057,43.20760052,428.96 -0.05762458,43.20756459,428.96 -0.05765813,43.20752915,428.96 -0.05769123,43.20749418,428.96 -0.05772388,43.20745969,428.96 -0.05775608,43.20742568,428.96 -0.05778784,43.20739213,428.96</coordinates></LineString></Placemark>
<Placemark><name>beta 45 nominal</name><description>Groupe : SP02 K570&lt;br/&gt;Fichier : beta_45.csv&lt;br/&gt;Pas de tir : Rampe FusEx&lt;br/&gt;Azimut : 214.6°&lt;br/&gt;Apogée : 1186 m&lt;br/&gt;Portée : 4229 m&lt;br/&gt;Points : 150 / 917&lt;br/&gt;Rideau : quadrillage_45</description><styleUrl>#s_v0_3</styleUrl><LineString><extrude>0</extrude><altitudeMode>absolute</altitudeMode><coordinates>-0.04733330,43.21843610,428.96 -0.04733362,43.21843577,428.99 -0.04733498,43.21843432,429.16 -0.04733771,43.21843144,429.52 -0.04734282,43.21842604,430.21 -0.04734875,43.21841978,431.03 -0.04735677,43.21841131,432.14 -0.04739862,43.21836709,437.72 -0.04748541,43.21827542,448.79 -0.04754465,43.21821283,456.02 -0.04767792,43.21807205,471.39 -0.04783625,43.21790480,488.81 -0.04803714,43.21769257,510.02 -0.04825742,43.21745988,532.38 -0.04851085,43.21719216,557.18 -0.04878685,43.21690059,583.28 -0.04908269,43.21658808,610.35 -0.04944066,43.21620993,641.97 -0.04974670,43.21588663,668.06 -0.05004745,43.21556893,692.82 -0.05034220,43.21525756,716.21 -0.05066378,43.21491784,740.77 -0.05108794,43.21446977,772.14 -0.05160786,43.21392054,809.63 -0.05231522,43.21317329,859.44 -0.05279664,43.21266473,892.70 -0.05328506,43.21214878,926.00 -0.05336824,43.21206091,931.63 -0.05346109,43.21196282,937.90 -0.05356015,43.21185818,944.58 -0.05367320,43.21173875,952.17 -0.05384649,43.21155569,963.77 -0.05401604,43.21137659,975.07 -0.05427330,43.21110482,992.13 -0.05474626,43.21060520,1023.22 -0.05482347,43.21052363,1028.26 -0.05491065,43.21043153,1033.95 -0.05500738,43.21032935,1040.24 -0.05512390,43.21020626,1047.80 -0.05525637,43.21006632,1056.38 -0.05542321,43.20989007,1067.13 -0.05562635,43.20967548,1080.18 -0.05601109,43.20926905,1104.72 -0.05641539,43.20884195,1130.28 -0.05660953,43.20863687,1142.46 -0.05703905,43.20818314,1169.23 -0.05720915,43.20800344,1179.76 -0.05724754,43.20796289,1182.13 -0.05729278,43.20791509,1184.92 -0.05733837,43.20786693,1187.73 -0.05738087,43.20782204,1190.35 -0.05743602,43.20776378,1193.73 -0.05748505,43.20771199,1196.74 -0.05753293,43.20766140,1199.68 -0.05759240,43.20759859,1203.32 -0.05763278,43.20755592,1205.79 -0.05770169,43.20748313,1210.00 -0.05774724,43.20743501,1212.77 -0.05782819,43.20734950,1217.70 -0.05790996,43.20726312,1222.66 -0.05800092,43.20716703,1228.17 -0.05810080,43.20706152,1234.21 -0.05821818,43.20693752,1241.27 -0.05838287,43.20676355,1251.14 -0.05857091,43.20656490,1262.35 -0.05898185,43.20613079,1286.59 -0.05940670,43.20568199,1311.24 -0.05996279,43.20509455,1342.81 -0.06049650,43.20453075,1372.26 -0.06099981,43.20399906,1399.17 -0.06147683,43.20349515,1423.82 -0.06193073,43.20301565,1446.41 -0.06243448,43.20248350,1470.40 -0.06284651,43.20204824,1489.08 -0.06324214,43.20163030,1506.15 -0.06362283,43.20122815,1521.72 -0.06398983,43.20084046,1535.85 -0.06434425,43.20046606,1548.63 -0.06474310,43.20004472,1561.93 -0.06507338,43.19969582,1571.99 -0.06539375,43.19935738,1580.89 -0.06570485,43.19902874,1588.66 -0.06600727,43.19870927,1595.34 -0.06630154,43.19839842,1600.97 -0.06658813,43.19809567,1605.59 -0.06691334,43.19775212,1609.72 -0.06718471,43.19746545,1612.23 -0.06744962,43.19718561,1613.81 -0.06779335,43.19682249,1614.51 -0.06796135,43.19664502,1614.27 -0.06820872,43.19638371,1613.18 -0.06845075,43.19612803,1611.25 -0.06872668,43.19583654,1607.95 -0.06895790,43.19559229,1604.24 -0.06918444,43.19535297,1599.73 -0.06940648,43.19511842,1594.43 -0.06962415,43.19488847,1588.38 -0.06983763,43.19466296,1581.56 -0.07004703,43.19444175,1574.00 -0.07028636,43.19418893,1564.26 -0.07048735,43.19397660,1555.13 -0.07068466,43.19376817,1545.30 -0.07087835,43.19356356,1534.78 -0.07106852,43.19336266,1523.57 -0.07125528,43.19316538,1511.70 -0.07146891,43.19293970,1497.01 -0.07164849,43.19275000,1483.71 -0.07182486,43.19256368,1469.78 -0.07199810,43.19238068,1455.23 -0.07216825,43.19220093,1440.05 -0.07233539,43.19202437,1424.28 -0.07249956,43.19185095,1407.91 -0.07268739,43.19165252,1388.07 -0.07284529,43.19148573,1370.46 -0.07300036,43.19132191,1352.28 -0.07315265,43.19116103,1333.56 -0.07330220,43.19100305,1314.30 -0.07344904,43.19084794,1294.51 -0.07359321,43.19069564,1274.21 -0.07375809,43.19052146,1249.90 -0.07389660,43.19037514,1228.53 -0.07403255,43.19023152,1206.67 -0.07416598,43.19009057,1184.36 -0.07429691,43.18995226,1161.59 -0.07442537,43.18981656,1138.37 -0.07455139,43.18968343,1114.72 -0.07469538,43.18953132,1086.60 -0.07481624,43.18940365,1062.06 -0.07493475,43.18927846,1037.11 -0.07505095,43.18915570,1011.79 -0.07516487,43.18903537,986.09 -0.07527653,43.18891741,960.02 -0.07538596,43.18880181,933.60 -0.07551087,43.18866985,902.35 -0.07561559,43.18855924,875.21 -0.07571816,43.18845088,847.75 -0.07581864,43.18834473,819.98 -0.07591704,43.18824078,791.92 -0.07601339,43.18813900,763.57 -0.07612325,43.18802294,730.14 -0.07621527,43.18792574,701.21 -0.07630532,43.18783061,672.01 -0.07639346,43.18773751,642.58 -0.07647969,43.18764642,612.90 -0.07656405,43.18755730,583.00 -0.07664658,43.18747012,552.89 -0.07674057,43.18737082,517.49 -0.07681921,43.18728775,486.93 -0.07689610,43.18720652,456.18 -0.07697128,43.18712711,425.25</coordinates></LineString></Placemark>
<Placemark><name>beta 45 nominal — quadrillage_45</name><description>Motif : quadrillage_45 (45°, 135°)&lt;br/&gt;Pas : 150 m&lt;br/&gt;Segments : 40</description><styleUrl>#s_v0_3_m</styleUrl><MultiGeometry><LineString><altitudeMode>absolute</altitudeMode><coordinates>-0.07557726,43.18859972,398.96 -0.07659010,43.18752978,573.50</coordinates></LineString><LineString><altitudeMode>absolute</altitudeMode><coordinates>-0.07409073,43.19017006,398.96 -0.07614761,43.18799721,722.48</coordinates></LineString><LineString><altitudeMode>absolute</altitudeMode><coordinates>-0.07260421,43.19174039,398.96 -0.07565583,43.18851672,864.44</coordinates></LineString><LineString><altitudeMode>absolute</altitudeMode><coordinates>-0.07111769,43.19331073,398.96 -0.07510942,43.18909394,998.59</coordinates></LineString><LineString><altitudeMode>absolute</altitudeMode><coordinates>-0.06963116,43.19488107,398.96 -0.07450184,43.18973578,1124.02</coordinates></LineString><LineString><altitudeMode>absolute</altitudeMode><coordinates>-0.06814464,43.19645140,398.96 -0.07382502,43.19045075,1239.57</coordinates></LineString><LineString><altitudeMode>absolute</altitudeMode><coordinates>-0.06665811,43.19802174,398.96 -0.07306909,43.19124930,1343.83</coordinates></LineString><LineString><altitudeMode>absolute</altitudeMode><coordinates>-0.06517159,43.19959207,398.96 -0.07222159,43.19214459,1435.02</coordinates></LineString><LineString><altitudeMode>absolute</altitudeMode><coordinates>-0.06368507,43.20116241,398.96 -0.07126682,43.19315318,1510.90</coordinates></LineString><LineString><altitudeMode>absolute</altitudeMode><coordinates>-0.06219854,43.20273274,398.96 -0.07018352,43.19429756,1568.44</coordinates></LineString><LineString><altitudeMode>absolute</altitudeMode><coordinates>-0.06071202,43.20430308,398.96 -0.06894884,43.19560186,1604.38</coordinates></LineString><LineString><altitudeMode>absolute</altitudeMode><coordinates>-0.05922549,43.20587342,398.96 -0.06752952,43.19710120,1613.97</coordinates></LineString><LineString><altitudeMode>absolute</altitudeMode><coordinates>-0.05773897,43.20744375,398.96 -0.06589504,43.19882783,1592.86</coordinates></LineString><LineString><altitudeMode>absolute</altitudeMode><coordinates>-0.05625244,43.20901409,398.96 -0.06401552,43.20081332,1536.78</coordinates></LineString><LineString><altitudeMode>absolute</altitudeMode><coordinates>-0.05476592,43.21058442,398.96 -0.06187705,43.20307236,1443.74</coordinates></LineString><LineString><altitudeMode>absolute</altitudeMode><coordinates>-0.05327940,43.21215476,398.96 -0.05949859,43.20558492,1316.46</coordinates></LineString><LineString><altitudeMode>absolute</altitudeMode><coordinates>-0.05179287,43.21372509,398.96 -0.05693488,43.20829317,1162.74</coordinates></LineString><LineString><altitudeMode>absolute</altitudeMode><coordinates>-0.05030635,43.21529543,398.96 -0.05423495,43.21114533,989.59</coordinates></LineString><LineString><altitudeMode>absolute</altitudeMode><coordinates>-0.04881982,43.21686576,398.96 -0.05136439,43.21417774,792.08</coordinates></LineString><LineString><altitudeMode>absolute</altitudeMode><coordinates>-0.07582710,43.18833580,817.57 -0.07075382,43.19369512,1541.55</coordinates></LineString><LineString><altitudeMode>absolute</altitudeMode><coordinates>-0.07690835,43.18719358,451.14 -0.06881151,43.19574693,1606.59</coordinates></LineString><LineString><altitudeMode>absolute</altitudeMode><coordinates>-0.07557726,43.18859973,398.96 -0.06728139,43.19736332,1612.81</coordinates></LineString><LineString><altitudeMode>absolute</altitudeMode><coordinates>-0.07409073,43.19017006,398.96 -0.06592935,43.19879159,1593.62</coordinates></LineString><LineString><altitudeMode>absolute</altitudeMode><coordinates>-0.07260421,43.19174040,398.96 -0.06467971,43.20011169,1559.81</coordinates></LineString><LineString><altitudeMode>absolute</altitudeMode><coordinates>-0.07111768,43.19331073,398.96 -0.06349638,43.20136173,1516.55</coordinates></LineString><LineString><altitudeMode>absolute</altitudeMode><coordinates>-0.06963116,43.19488107,398.96 -0.06235858,43.20256369,1466.78</coordinates></LineString><LineString><altitudeMode>absolute</altitudeMode><coordinates>-0.06814464,43.19645140,398.96 -0.06125384,43.20373071,1412.30</coordinates></LineString><LineString><altitudeMode>absolute</altitudeMode><coordinates>-0.06665811,43.19802174,398.96 -0.06017299,43.20487250,1354.41</coordinates></LineString><LineString><altitudeMode>absolute</altitudeMode><coordinates>-0.06517159,43.19959207,398.96 -0.05910971,43.20599573,1294.01</coordinates></LineString><LineString><altitudeMode>absolute</altitudeMode><coordinates>-0.06368506,43.20116241,398.96 -0.05805968,43.20710496,1231.72</coordinates></LineString><LineString><altitudeMode>absolute</altitudeMode><coordinates>-0.06219854,43.20273275,398.96 -0.05701955,43.20820373,1168.02</coordinates></LineString><LineString><altitudeMode>absolute</altitudeMode><coordinates>-0.06071202,43.20430308,398.96 -0.05598726,43.20929422,1103.20</coordinates></LineString><LineString><altitudeMode>absolute</altitudeMode><coordinates>-0.05922549,43.20587342,398.96 -0.05496242,43.21037685,1037.32</coordinates></LineString><LineString><altitudeMode>absolute</altitudeMode><coordinates>-0.05773897,43.20744375,398.96 -0.05394519,43.21145143,970.35</coordinates></LineString><LineString><altitudeMode>absolute</altitudeMode><coordinates>-0.05625244,43.20901409,398.96 -0.05293610,43.21251740,902.21</coordinates></LineString><LineString><altitudeMode>absolute</altitudeMode><coordinates>-0.05476592,43.21058442,398.96 -0.05193629,43.21357359,832.76</coordinates></LineString><LineString><altitudeMode>absolute</altitudeMode><coordinates>-0.05327939,43.21215476,398.96 -0.05094737,43.21461826,761.75</coordinates></LineString><LineString><altitudeMode>absolute</altitudeMode><coordinates>-0.05179287,43.21372509,398.96 -0.04998176,43.21563832,687.41</coordinates></LineString><LineString><altitudeMode>absolute</altitudeMode><coordinates>-0.05030635,43.21529543,398.96 -0.04905378,43.21661862,607.71</coordinates></LineString><LineString><altitudeMode>absolute</altitudeMode><coordinates>-0.04881982,43.21686577,398.96 -0.04816258,43.21756007,522.75</coordinates></LineString></MultiGeometry></Placemark>
<Placemark><name>beta 45 nominal — trace au sol</name><description>Projection au sol</description><styleUrl>#s_v0_3</styleUrl><LineString><tessellate>1</tessellate><altitudeMode>clampToGround</altitudeMode><coordinates>-0.04733330,43.21843610,428.96 -0.04733362,43.21843577,428.96 -0.04733498,43.21843432,428.96 -0.04733771,43.21843144,428.96 -0.04734282,43.21842604,428.96 -0.04734875,43.21841978,428.96 -0.04735677,43.21841131,428.96 -0.04739862,43.21836709,428.96 -0.04748541,43.21827542,428.96 -0.04754465,43.21821283,428.96 -0.04767792,43.21807205,428.96 -0.04783625,43.21790480,428.96 -0.04803714,43.21769257,428.96 -0.04825742,43.21745988,428.96 -0.04851085,43.21719216,428.96 -0.04878685,43.21690059,428.96 -0.04908269,43.21658808,428.96 -0.04944066,43.21620993,428.96 -0.04974670,43.21588663,428.96 -0.05004745,43.21556893,428.96 -0.05034220,43.21525756,428.96 -0.05066378,43.21491784,428.96 -0.05108794,43.21446977,428.96 -0.05160786,43.21392054,428.96 -0.05231522,43.21317329,428.96 -0.05279664,43.21266473,428.96 -0.05328506,43.21214878,428.96 -0.05336824,43.21206091,428.96 -0.05346109,43.21196282,428.96 -0.05356015,43.21185818,428.96 -0.05367320,43.21173875,428.96 -0.05384649,43.21155569,428.96 -0.05401604,43.21137659,428.96 -0.05427330,43.21110482,428.96 -0.05474626,43.21060520,428.96 -0.05482347,43.21052363,428.96 -0.05491065,43.21043153,428.96 -0.05500738,43.21032935,428.96 -0.05512390,43.21020626,428.96 -0.05525637,43.21006632,428.96 -0.05542321,43.20989007,428.96 -0.05562635,43.20967548,428.96 -0.05601109,43.20926905,428.96 -0.05641539,43.20884195,428.96 -0.05660953,43.20863687,428.96 -0.05703905,43.20818314,428.96 -0.05720915,43.20800344,428.96 -0.05724754,43.20796289,428.96 -0.05729278,43.20791509,428.96 -0.05733837,43.20786693,428.96 -0.05738087,43.20782204,428.96 -0.05743602,43.20776378,428.96 -0.05748505,43.20771199,428.96 -0.05753293,43.20766140,428.96 -0.05759240,43.20759859,428.96 -0.05763278,43.20755592,428.96 -0.05770169,43.20748313,428.96 -0.05774724,43.20743501,428.96 -0.05782819,43.20734950,428.96 -0.05790996,43.20726312,428.96 -0.05800092,43.20716703,428.96 -0.05810080,43.20706152,428.96 -0.05821818,43.20693752,428.96 -0.05838287,43.20676355,428.96 -0.05857091,43.20656490,428.96 -0.05898185,43.20613079,428.96 -0.05940670,43.20568199,428.96 -0.05996279,43.20509455,428.96 -0.06049650,43.20453075,428.96 -0.06099981,43.20399906,428.96 -0.06147683,43.20349515,428.96 -0.06193073,43.20301565,428.96 -0.06243448,43.20248350,428.96 -0.06284651,43.20204824,428.96 -0.06324214,43.20163030,428.96 -0.06362283,43.20122815,428.96 -0.06398983,43.20084046,428.96 -0.06434425,43.20046606,428.96 -0.06474310,43.20004472,428.96 -0.06507338,43.19969582,428.96 -0.06539375,43.19935738,428.96 -0.06570485,43.19902874,428.96 -0.06600727,43.19870927,428.96 -0.06630154,43.19839842,428.96 -0.06658813,43.19809567,428.96 -0.06691334,43.19775212,428.96 -0.06718471,43.19746545,428.96 -0.06744962,43.19718561,428.96 -0.06779335,43.19682249,428.96 -0.06796135,43.19664502,428.96 -0.06820872,43.19638371,428.96 -0.06845075,43.19612803,428.96 -0.06872668,43.19583654,428.96 -0.06895790,43.19559229,428.96 -0.06918444,43.19535297,428.96 -0.06940648,43.19511842,428.96 -0.06962415,43.19488847,428.96 -0.06983763,43.19466296,428.96 -0.07004703,43.19444175,428.96 -0.07028636,43.19418893,428.96 -0.07048735,43.19397660,428.96 -0.07068466,43.19376817,428.96 -0.07087835,43.19356356,428.96 -0.07106852,43.19336266,428.96 -0.07125528,43.19316538,428.96 -0.07146891,43.19293970,428.96 -0.07164849,43.19275000,428.96 -0.07182486,43.19256368,428.96 -0.07199810,43.19238068,428.96 -0.07216825,43.19220093,428.96 -0.07233539,43.19202437,428.96 -0.07249956,43.19185095,428.96 -0.07268739,43.19165252,428.96 -0.07284529,43.19148573,428.96 -0.07300036,43.19132191,428.96 -0.07315265,43.19116103,428.96 -0.07330220,43.19100305,428.96 -0.07344904,43.19084794,428.96 -0.07359321,43.19069564,428.96 -0.07375809,43.19052146,428.96 -0.07389660,43.19037514,428.96 -0.07403255,43.19023152,428.96 -0.07416598,43.19009057,428.96 -0.07429691,43.18995226,428.96 -0.07442537,43.18981656,428.96 -0.07455139,43.18968343,428.96 -0.07469538,43.18953132,428.96 -0.07481624,43.18940365,428.96 -0.07493475,43.18927846,428.96 -0.07505095,43.18915570,428.96 -0.07516487,43.18903537,428.96 -0.07527653,43.18891741,428.96 -0.07538596,43.18880181,428.96 -0.07551087,43.18866985,428.96 -0.07561559,43.18855924,428.96 -0.07571816,43.18845088,428.96 -0.07581864,43.18834473,428.96 -0.07591704,43.18824078,428.96 -0.07601339,43.18813900,428.96 -0.07612325,43.18802294,428.96 -0.07621527,43.18792574,428.96 -0.07630532,43.18783061,428.96 -0.07639346,43.18773751,428.96 -0.07647969,43.18764642,428.96 -0.07656405,43.18755730,428.96 -0.07664658,43.18747012,428.96 -0.07674057,43.18737082,428.96 -0.07681921,43.18728775,428.96 -0.07689610,43.18720652,428.96 -0.07697128,43.18712711,428.96</coordinates></LineString></Placemark>
</Folder>
</Folder>
</Document></kml>
